,address,name,last_update,lng,lat,available_bikes,available_bike_stands,number,bike_stands,banking,weekday,hour,minute
0,Blessington Street,BLESSINGTON STREET,1551744308000000000,-6.26814,53.356769,14,6,2,20,1,1,0,5
1,Blessington Street,BLESSINGTON STREET,1551744917000000000,-6.26814,53.356769,14,6,2,20,1,1,0,15
2,Blessington Street,BLESSINGTON STREET,1551745526000000000,-6.26814,53.356769,14,6,2,20,1,1,0,25
3,Blessington Street,BLESSINGTON STREET,1551745949000000000,-6.26814,53.356769,14,6,2,20,1,1,0,32
4,Blessington Street,BLESSINGTON STREET,1551746559000000000,-6.26814,53.356769,14,6,2,20,1,1,0,42
5,Blessington Street,BLESSINGTON STREET,1551747168000000000,-6.26814,53.356769,14,6,2,20,1,1,0,52
6,Blessington Street,BLESSINGTON STREET,1551747777000000000,-6.26814,53.356769,14,6,2,20,1,1,1,2
7,Blessington Street,BLESSINGTON STREET,1551748386000000000,-6.26814,53.356769,14,6,2,20,1,1,1,13
8,Blessington Street,BLESSINGTON STREET,1551748995000000000,-6.26814,53.356769,14,6,2,20,1,1,1,23
9,Blessington Street,BLESSINGTON STREET,1551749604000000000,-6.26814,53.356769,14,6,2,20,1,1,1,33
10,Blessington Street,BLESSINGTON STREET,1551750214000000000,-6.26814,53.356769,14,6,2,20,1,1,1,43
11,Blessington Street,BLESSINGTON STREET,1551750823000000000,-6.26814,53.356769,14,6,2,20,1,1,1,53
12,Blessington Street,BLESSINGTON STREET,1551751432000000000,-6.26814,53.356769,14,6,2,20,1,1,2,3
13,Blessington Street,BLESSINGTON STREET,1551752041000000000,-6.26814,53.356769,14,6,2,20,1,1,2,14
14,Blessington Street,BLESSINGTON STREET,1551752651000000000,-6.26814,53.356769,14,6,2,20,1,1,2,24
15,Blessington Street,BLESSINGTON STREET,1551753121000000000,-6.26814,53.356769,14,6,2,20,1,1,2,32
16,Blessington Street,BLESSINGTON STREET,1551753498000000000,-6.26814,53.356769,14,6,2,20,1,1,2,38
17,Blessington Street,BLESSINGTON STREET,1551754107000000000,-6.26814,53.356769,14,6,2,20,1,1,2,48
18,Blessington Street,BLESSINGTON STREET,1551754716000000000,-6.26814,53.356769,14,6,2,20,1,1,2,58
19,Blessington Street,BLESSINGTON STREET,1551755325000000000,-6.26814,53.356769,14,6,2,20,1,1,3,8
20,Blessington Street,BLESSINGTON STREET,1551755934000000000,-6.26814,53.356769,14,6,2,20,1,1,3,18
21,Blessington Street,BLESSINGTON STREET,1551756543000000000,-6.26814,53.356769,14,6,2,20,1,1,3,29
22,Blessington Street,BLESSINGTON STREET,1551757153000000000,-6.26814,53.356769,14,6,2,20,1,1,3,39
23,Blessington Street,BLESSINGTON STREET,1551757762000000000,-6.26814,53.356769,14,6,2,20,1,1,3,49
24,Blessington Street,BLESSINGTON STREET,1551758371000000000,-6.26814,53.356769,14,6,2,20,1,1,3,59
25,Blessington Street,BLESSINGTON STREET,1551758980000000000,-6.26814,53.356769,14,6,2,20,1,1,4,9
26,Blessington Street,BLESSINGTON STREET,1551759589000000000,-6.26814,53.356769,14,6,2,20,1,1,4,19
27,Blessington Street,BLESSINGTON STREET,1551760199000000000,-6.26814,53.356769,14,6,2,20,1,1,4,29
28,Blessington Street,BLESSINGTON STREET,1551760808000000000,-6.26814,53.356769,14,6,2,20,1,1,4,40
29,Blessington Street,BLESSINGTON STREET,1551761417000000000,-6.26814,53.356769,14,6,2,20,1,1,4,50
30,Blessington Street,BLESSINGTON STREET,1551762021000000000,-6.26814,53.356769,14,6,2,20,1,1,5,0
31,Blessington Street,BLESSINGTON STREET,1551762630000000000,-6.26814,53.356769,14,6,2,20,1,1,5,10
32,Blessington Street,BLESSINGTON STREET,1551763239000000000,-6.26814,53.356769,14,6,2,20,1,1,5,20
33,Blessington Street,BLESSINGTON STREET,1551763848000000000,-6.26814,53.356769,14,6,2,20,1,1,5,30
34,Blessington Street,BLESSINGTON STREET,1551764457000000000,-6.26814,53.356769,14,6,2,20,1,1,5,40
35,Blessington Street,BLESSINGTON STREET,1551765065000000000,-6.26814,53.356769,14,6,2,20,1,1,5,51
36,Blessington Street,BLESSINGTON STREET,1551765719000000000,-6.26814,53.356769,14,6,2,20,1,1,6,1
37,Blessington Street,BLESSINGTON STREET,1551766328000000000,-6.26814,53.356769,13,7,2,20,1,1,6,12
38,Blessington Street,BLESSINGTON STREET,1551766686000000000,-6.26814,53.356769,13,7,2,20,1,1,6,18
39,Blessington Street,BLESSINGTON STREET,1551766997000000000,-6.26814,53.356769,13,7,2,20,1,1,6,23
40,Blessington Street,BLESSINGTON STREET,1551767120000000000,-6.26814,53.356769,11,9,2,20,1,1,6,25
41,Blessington Street,BLESSINGTON STREET,1551767934000000000,-6.26814,53.356769,10,10,2,20,1,1,6,38
42,Blessington Street,BLESSINGTON STREET,1551768226000000000,-6.26814,53.356769,10,10,2,20,1,1,6,43
43,Blessington Street,BLESSINGTON STREET,1551768536000000000,-6.26814,53.356769,8,12,2,20,1,1,6,48
44,Blessington Street,BLESSINGTON STREET,1551768814000000000,-6.26814,53.356769,6,14,2,20,1,1,6,53
45,Blessington Street,BLESSINGTON STREET,1551768887000000000,-6.26814,53.356769,5,15,2,20,1,1,6,54
46,Blessington Street,BLESSINGTON STREET,1551769496000000000,-6.26814,53.356769,4,16,2,20,1,1,7,4
47,Blessington Street,BLESSINGTON STREET,1551770105000000000,-6.26814,53.356769,4,16,2,20,1,1,7,15
48,Blessington Street,BLESSINGTON STREET,1551770714000000000,-6.26814,53.356769,4,16,2,20,1,1,7,25
49,Blessington Street,BLESSINGTON STREET,1551770995000000000,-6.26814,53.356769,4,16,2,20,1,1,7,29
50,Blessington Street,BLESSINGTON STREET,1551771486000000000,-6.26814,53.356769,2,18,2,20,1,1,7,38
51,Blessington Street,BLESSINGTON STREET,1551771766000000000,-6.26814,53.356769,0,20,2,20,1,1,7,42
52,Blessington Street,BLESSINGTON STREET,1551772375000000000,-6.26814,53.356769,0,20,2,20,1,1,7,52
53,Blessington Street,BLESSINGTON STREET,1551772984000000000,-6.26814,53.356769,0,20,2,20,1,1,8,3
54,Blessington Street,BLESSINGTON STREET,1551773314000000000,-6.26814,53.356769,1,19,2,20,1,1,8,8
55,Blessington Street,BLESSINGTON STREET,1551773372000000000,-6.26814,53.356769,0,20,2,20,1,1,8,9
56,Blessington Street,BLESSINGTON STREET,1551773981000000000,-6.26814,53.356769,0,20,2,20,1,1,8,19
57,Blessington Street,BLESSINGTON STREET,1551774591000000000,-6.26814,53.356769,0,20,2,20,1,1,8,29
58,Blessington Street,BLESSINGTON STREET,1551775396000000000,-6.26814,53.356769,1,19,2,20,1,1,8,43
59,Blessington Street,BLESSINGTON STREET,1551775855000000000,-6.26814,53.356769,0,20,2,20,1,1,8,50
60,Blessington Street,BLESSINGTON STREET,1551776464000000000,-6.26814,53.356769,0,20,2,20,1,1,9,1
61,Blessington Street,BLESSINGTON STREET,1551776940000000000,-6.26814,53.356769,1,19,2,20,1,1,9,9
62,Blessington Street,BLESSINGTON STREET,1551777003000000000,-6.26814,53.356769,1,19,2,20,1,1,9,10
63,Blessington Street,BLESSINGTON STREET,1551777612000000000,-6.26814,53.356769,1,19,2,20,1,1,9,20
64,Blessington Street,BLESSINGTON STREET,1551778023000000000,-6.26814,53.356769,0,20,2,20,1,1,9,27
65,Blessington Street,BLESSINGTON STREET,1551778632000000000,-6.26814,53.356769,0,20,2,20,1,1,9,37
66,Blessington Street,BLESSINGTON STREET,1551779242000000000,-6.26814,53.356769,0,20,2,20,1,1,9,47
67,Blessington Street,BLESSINGTON STREET,1551779851000000000,-6.26814,53.356769,0,20,2,20,1,1,9,57
68,Blessington Street,BLESSINGTON STREET,1551780460000000000,-6.26814,53.356769,0,20,2,20,1,1,10,7
69,Blessington Street,BLESSINGTON STREET,1551781069000000000,-6.26814,53.356769,0,20,2,20,1,1,10,17
70,Blessington Street,BLESSINGTON STREET,1551781678000000000,-6.26814,53.356769,0,20,2,20,1,1,10,27
71,Blessington Street,BLESSINGTON STREET,1551782287000000000,-6.26814,53.356769,0,20,2,20,1,1,10,38
72,Blessington Street,BLESSINGTON STREET,1551782896000000000,-6.26814,53.356769,0,20,2,20,1,1,10,48
73,Blessington Street,BLESSINGTON STREET,1551783505000000000,-6.26814,53.356769,0,20,2,20,1,1,10,58
74,Blessington Street,BLESSINGTON STREET,1551784115000000000,-6.26814,53.356769,0,20,2,20,1,1,11,8
75,Blessington Street,BLESSINGTON STREET,1551785330000000000,-6.26814,53.356769,1,19,2,20,1,1,11,28
76,Blessington Street,BLESSINGTON STREET,1551785939000000000,-6.26814,53.356769,1,19,2,20,1,1,11,38
77,Blessington Street,BLESSINGTON STREET,1551786036000000000,-6.26814,53.356769,0,20,2,20,1,1,11,40
78,Blessington Street,BLESSINGTON STREET,1551786645000000000,-6.26814,53.356769,0,20,2,20,1,1,11,50
79,Blessington Street,BLESSINGTON STREET,1551787395000000000,-6.26814,53.356769,1,19,2,20,1,1,12,3
80,Blessington Street,BLESSINGTON STREET,1551787463000000000,-6.26814,53.356769,0,20,2,20,1,1,12,4
81,Blessington Street,BLESSINGTON STREET,1551788303000000000,-6.26814,53.356769,1,19,2,20,1,1,12,18
82,Blessington Street,BLESSINGTON STREET,1551788871000000000,-6.26814,53.356769,0,20,2,20,1,1,12,27
83,Blessington Street,BLESSINGTON STREET,1551789481000000000,-6.26814,53.356769,0,20,2,20,1,1,12,38
84,Blessington Street,BLESSINGTON STREET,1551790090000000000,-6.26814,53.356769,0,20,2,20,1,1,12,48
85,Blessington Street,BLESSINGTON STREET,1551790699000000000,-6.26814,53.356769,0,20,2,20,1,1,12,58
86,Blessington Street,BLESSINGTON STREET,1551791308000000000,-6.26814,53.356769,0,20,2,20,1,1,13,8
87,Blessington Street,BLESSINGTON STREET,1551791917000000000,-6.26814,53.356769,0,20,2,20,1,1,13,18
88,Blessington Street,BLESSINGTON STREET,1551792387000000000,-6.26814,53.356769,1,19,2,20,1,1,13,26
89,Blessington Street,BLESSINGTON STREET,1551792922000000000,-6.26814,53.356769,2,18,2,20,1,1,13,35
90,Blessington Street,BLESSINGTON STREET,1551793236000000000,-6.26814,53.356769,2,18,2,20,1,1,13,40
91,Blessington Street,BLESSINGTON STREET,1551793845000000000,-6.26814,53.356769,2,18,2,20,1,1,13,50
92,Blessington Street,BLESSINGTON STREET,1551794293000000000,-6.26814,53.356769,2,18,2,20,1,1,13,58
93,Blessington Street,BLESSINGTON STREET,1551794903000000000,-6.26814,53.356769,1,19,2,20,1,1,14,8
94,Blessington Street,BLESSINGTON STREET,1551795209000000000,-6.26814,53.356769,3,17,2,20,1,1,14,13
95,Blessington Street,BLESSINGTON STREET,1551795818000000000,-6.26814,53.356769,3,17,2,20,1,1,14,23
96,Blessington Street,BLESSINGTON STREET,1551796427000000000,-6.26814,53.356769,3,17,2,20,1,1,14,33
97,Blessington Street,BLESSINGTON STREET,1551796983000000000,-6.26814,53.356769,4,16,2,20,1,1,14,43
98,Blessington Street,BLESSINGTON STREET,1551797592000000000,-6.26814,53.356769,3,17,2,20,1,1,14,53
99,Blessington Street,BLESSINGTON STREET,1551797985000000000,-6.26814,53.356769,3,17,2,20,1,1,14,59
100,Blessington Street,BLESSINGTON STREET,1551798669000000000,-6.26814,53.356769,2,18,2,20,1,1,15,11
101,Blessington Street,BLESSINGTON STREET,1551798932000000000,-6.26814,53.356769,0,20,2,20,1,1,15,15
102,Blessington Street,BLESSINGTON STREET,1551799394000000000,-6.26814,53.356769,1,19,2,20,1,1,15,23
103,Blessington Street,BLESSINGTON STREET,1551800002000000000,-6.26814,53.356769,1,19,2,20,1,1,15,33
104,Blessington Street,BLESSINGTON STREET,1551800610000000000,-6.26814,53.356769,1,19,2,20,1,1,15,43
105,Blessington Street,BLESSINGTON STREET,1551801219000000000,-6.26814,53.356769,1,19,2,20,1,1,15,53
106,Blessington Street,BLESSINGTON STREET,1551801464000000000,-6.26814,53.356769,0,20,2,20,1,1,15,57
107,Blessington Street,BLESSINGTON STREET,1551802073000000000,-6.26814,53.356769,0,20,2,20,1,1,16,7
108,Blessington Street,BLESSINGTON STREET,1551802575000000000,-6.26814,53.356769,1,19,2,20,1,1,16,16
109,Blessington Street,BLESSINGTON STREET,1551802996000000000,-6.26814,53.356769,0,20,2,20,1,1,16,23
110,Blessington Street,BLESSINGTON STREET,1551803337000000000,-6.26814,53.356769,1,19,2,20,1,1,16,28
111,Blessington Street,BLESSINGTON STREET,1551803700000000000,-6.26814,53.356769,2,18,2,20,1,1,16,35
112,Blessington Street,BLESSINGTON STREET,1551804309000000000,-6.26814,53.356769,2,18,2,20,1,1,16,45
113,Blessington Street,BLESSINGTON STREET,1551804778000000000,-6.26814,53.356769,2,18,2,20,1,1,16,52
114,Blessington Street,BLESSINGTON STREET,1551805326000000000,-6.26814,53.356769,0,20,2,20,1,1,17,2
115,Blessington Street,BLESSINGTON STREET,1551805935000000000,-6.26814,53.356769,0,20,2,20,1,1,17,12
116,Blessington Street,BLESSINGTON STREET,1551806544000000000,-6.26814,53.356769,0,20,2,20,1,1,17,22
117,Blessington Street,BLESSINGTON STREET,1551807152000000000,-6.26814,53.356769,0,20,2,20,1,1,17,32
118,Blessington Street,BLESSINGTON STREET,1551807710000000000,-6.26814,53.356769,2,18,2,20,1,1,17,41
119,Blessington Street,BLESSINGTON STREET,1551808111000000000,-6.26814,53.356769,2,18,2,20,1,1,17,48
120,Blessington Street,BLESSINGTON STREET,1551808549000000000,-6.26814,53.356769,2,18,2,20,1,1,17,55
121,Blessington Street,BLESSINGTON STREET,1551808902000000000,-6.26814,53.356769,3,17,2,20,1,1,18,1
122,Blessington Street,BLESSINGTON STREET,1551809261000000000,-6.26814,53.356769,5,15,2,20,1,1,18,7
123,Blessington Street,BLESSINGTON STREET,1551809465000000000,-6.26814,53.356769,6,14,2,20,1,1,18,11
124,Blessington Street,BLESSINGTON STREET,1551810138000000000,-6.26814,53.356769,8,12,2,20,1,1,18,22
125,Blessington Street,BLESSINGTON STREET,1551810276000000000,-6.26814,53.356769,9,11,2,20,1,1,18,24
126,Blessington Street,BLESSINGTON STREET,1551810809000000000,-6.26814,53.356769,9,11,2,20,1,1,18,33
127,Blessington Street,BLESSINGTON STREET,1551810958000000000,-6.26814,53.356769,10,10,2,20,1,1,18,35
128,Blessington Street,BLESSINGTON STREET,1551811381000000000,-6.26814,53.356769,9,11,2,20,1,1,18,43
129,Blessington Street,BLESSINGTON STREET,1551811736000000000,-6.26814,53.356769,8,12,2,20,1,1,18,48
130,Blessington Street,BLESSINGTON STREET,1551811780000000000,-6.26814,53.356769,7,13,2,20,1,1,18,49
131,Blessington Street,BLESSINGTON STREET,1551812167000000000,-6.26814,53.356769,6,14,2,20,1,1,18,56
132,Blessington Street,BLESSINGTON STREET,1551812775000000000,-6.26814,53.356769,6,14,2,20,1,1,19,6
133,Blessington Street,BLESSINGTON STREET,1551813162000000000,-6.26814,53.356769,6,14,2,20,1,1,19,12
134,Blessington Street,BLESSINGTON STREET,1551813345000000000,-6.26814,53.356769,6,14,2,20,1,1,19,15
135,Blessington Street,BLESSINGTON STREET,1551813875000000000,-6.26814,53.356769,7,13,2,20,1,1,19,24
136,Blessington Street,BLESSINGTON STREET,1551814150000000000,-6.26814,53.356769,8,12,2,20,1,1,19,29
137,Blessington Street,BLESSINGTON STREET,1551814590000000000,-6.26814,53.356769,8,12,2,20,1,1,19,36
138,Blessington Street,BLESSINGTON STREET,1551814814000000000,-6.26814,53.356769,9,11,2,20,1,1,19,40
139,Blessington Street,BLESSINGTON STREET,1551815423000000000,-6.26814,53.356769,9,11,2,20,1,1,19,50
140,Blessington Street,BLESSINGTON STREET,1551815926000000000,-6.26814,53.356769,10,10,2,20,1,1,19,58
141,Blessington Street,BLESSINGTON STREET,1551816535000000000,-6.26814,53.356769,10,10,2,20,1,1,20,8
142,Blessington Street,BLESSINGTON STREET,1551816788000000000,-6.26814,53.356769,10,10,2,20,1,1,20,13
143,Blessington Street,BLESSINGTON STREET,1551817397000000000,-6.26814,53.356769,9,11,2,20,1,1,20,23
144,Blessington Street,BLESSINGTON STREET,1551817620000000000,-6.26814,53.356769,9,11,2,20,1,1,20,27
145,Blessington Street,BLESSINGTON STREET,1551818228000000000,-6.26814,53.356769,8,12,2,20,1,1,20,37
146,Blessington Street,BLESSINGTON STREET,1551818838000000000,-6.26814,53.356769,8,12,2,20,1,1,20,47
147,Blessington Street,BLESSINGTON STREET,1551819446000000000,-6.26814,53.356769,8,12,2,20,1,1,20,57
148,Blessington Street,BLESSINGTON STREET,1551820055000000000,-6.26814,53.356769,8,12,2,20,1,1,21,7
149,Blessington Street,BLESSINGTON STREET,1551820663000000000,-6.26814,53.356769,8,12,2,20,1,1,21,17
150,Blessington Street,BLESSINGTON STREET,1551821273000000000,-6.26814,53.356769,8,12,2,20,1,1,21,27
151,Blessington Street,BLESSINGTON STREET,1551821882000000000,-6.26814,53.356769,8,12,2,20,1,1,21,38
152,Blessington Street,BLESSINGTON STREET,1551822491000000000,-6.26814,53.356769,8,12,2,20,1,1,21,48
153,Blessington Street,BLESSINGTON STREET,1551822792000000000,-6.26814,53.356769,10,10,2,20,1,1,21,53
154,Blessington Street,BLESSINGTON STREET,1551823400000000000,-6.26814,53.356769,10,10,2,20,1,1,22,3
155,Blessington Street,BLESSINGTON STREET,1551824010000000000,-6.26814,53.356769,10,10,2,20,1,1,22,13
156,Blessington Street,BLESSINGTON STREET,1551824618000000000,-6.26814,53.356769,10,10,2,20,1,1,22,23
157,Blessington Street,BLESSINGTON STREET,1551825228000000000,-6.26814,53.356769,10,10,2,20,1,1,22,33
158,Blessington Street,BLESSINGTON STREET,1551825837000000000,-6.26814,53.356769,10,10,2,20,1,1,22,43
159,Blessington Street,BLESSINGTON STREET,1551826446000000000,-6.26814,53.356769,10,10,2,20,1,1,22,54
160,Blessington Street,BLESSINGTON STREET,1551827054000000000,-6.26814,53.356769,10,10,2,20,1,1,23,4
161,Blessington Street,BLESSINGTON STREET,1551827497000000000,-6.26814,53.356769,10,10,2,20,1,1,23,11
162,Blessington Street,BLESSINGTON STREET,1551828105000000000,-6.26814,53.356769,9,11,2,20,1,1,23,21
163,Blessington Street,BLESSINGTON STREET,1551828714000000000,-6.26814,53.356769,9,11,2,20,1,1,23,31
164,Blessington Street,BLESSINGTON STREET,1551829322000000000,-6.26814,53.356769,9,11,2,20,1,1,23,42
165,Blessington Street,BLESSINGTON STREET,1551829931000000000,-6.26814,53.356769,9,11,2,20,1,1,23,52
166,Blessington Street,BLESSINGTON STREET,1551830539000000000,-6.26814,53.356769,9,11,2,20,1,2,0,2
167,Blessington Street,BLESSINGTON STREET,1551831148000000000,-6.26814,53.356769,9,11,2,20,1,2,0,12
168,Blessington Street,BLESSINGTON STREET,1551831756000000000,-6.26814,53.356769,9,11,2,20,1,2,0,22
169,Blessington Street,BLESSINGTON STREET,1551832351000000000,-6.26814,53.356769,9,11,2,20,1,2,0,32
170,Blessington Street,BLESSINGTON STREET,1551832960000000000,-6.26814,53.356769,9,11,2,20,1,2,0,42
171,Blessington Street,BLESSINGTON STREET,1551833569000000000,-6.26814,53.356769,9,11,2,20,1,2,0,52
172,Blessington Street,BLESSINGTON STREET,1551834178000000000,-6.26814,53.356769,9,11,2,20,1,2,1,2
173,Blessington Street,BLESSINGTON STREET,1551834787000000000,-6.26814,53.356769,9,11,2,20,1,2,1,13
174,Blessington Street,BLESSINGTON STREET,1551835396000000000,-6.26814,53.356769,9,11,2,20,1,2,1,23
175,Blessington Street,BLESSINGTON STREET,1551836006000000000,-6.26814,53.356769,9,11,2,20,1,2,1,33
176,Blessington Street,BLESSINGTON STREET,1551836615000000000,-6.26814,53.356769,9,11,2,20,1,2,1,43
177,Blessington Street,BLESSINGTON STREET,1551837224000000000,-6.26814,53.356769,9,11,2,20,1,2,1,53
178,Blessington Street,BLESSINGTON STREET,1551837833000000000,-6.26814,53.356769,9,11,2,20,1,2,2,3
179,Blessington Street,BLESSINGTON STREET,1551838442000000000,-6.26814,53.356769,9,11,2,20,1,2,2,14
180,Blessington Street,BLESSINGTON STREET,1551839051000000000,-6.26814,53.356769,9,11,2,20,1,2,2,24
181,Blessington Street,BLESSINGTON STREET,1551839537000000000,-6.26814,53.356769,9,11,2,20,1,2,2,32
182,Blessington Street,BLESSINGTON STREET,1551839896000000000,-6.26814,53.356769,9,11,2,20,1,2,2,38
183,Blessington Street,BLESSINGTON STREET,1551840504000000000,-6.26814,53.356769,9,11,2,20,1,2,2,48
184,Blessington Street,BLESSINGTON STREET,1551841113000000000,-6.26814,53.356769,9,11,2,20,1,2,2,58
185,Blessington Street,BLESSINGTON STREET,1551841723000000000,-6.26814,53.356769,9,11,2,20,1,2,3,8
186,Blessington Street,BLESSINGTON STREET,1551842332000000000,-6.26814,53.356769,9,11,2,20,1,2,3,18
187,Blessington Street,BLESSINGTON STREET,1551842941000000000,-6.26814,53.356769,9,11,2,20,1,2,3,29
188,Blessington Street,BLESSINGTON STREET,1551843550000000000,-6.26814,53.356769,9,11,2,20,1,2,3,39
189,Blessington Street,BLESSINGTON STREET,1551844159000000000,-6.26814,53.356769,9,11,2,20,1,2,3,49
190,Blessington Street,BLESSINGTON STREET,1551844769000000000,-6.26814,53.356769,9,11,2,20,1,2,3,59
191,Blessington Street,BLESSINGTON STREET,1551845378000000000,-6.26814,53.356769,9,11,2,20,1,2,4,9
192,Blessington Street,BLESSINGTON STREET,1551845987000000000,-6.26814,53.356769,9,11,2,20,1,2,4,19
193,Blessington Street,BLESSINGTON STREET,1551846596000000000,-6.26814,53.356769,9,11,2,20,1,2,4,29
194,Blessington Street,BLESSINGTON STREET,1551847205000000000,-6.26814,53.356769,9,11,2,20,1,2,4,40
195,Blessington Street,BLESSINGTON STREET,1551847814000000000,-6.26814,53.356769,9,11,2,20,1,2,4,50
196,Blessington Street,BLESSINGTON STREET,1551848419000000000,-6.26814,53.356769,9,11,2,20,1,2,5,0
197,Blessington Street,BLESSINGTON STREET,1551849029000000000,-6.26814,53.356769,9,11,2,20,1,2,5,10
198,Blessington Street,BLESSINGTON STREET,1551849638000000000,-6.26814,53.356769,9,11,2,20,1,2,5,20
199,Blessington Street,BLESSINGTON STREET,1551850247000000000,-6.26814,53.356769,9,11,2,20,1,2,5,30
200,Blessington Street,BLESSINGTON STREET,1551851037000000000,-6.26814,53.356769,8,12,2,20,1,2,5,43
201,Blessington Street,BLESSINGTON STREET,1551851047000000000,-6.26814,53.356769,8,12,2,20,1,2,5,44
202,Blessington Street,BLESSINGTON STREET,1551851656000000000,-6.26814,53.356769,7,13,2,20,1,2,5,54
203,Blessington Street,BLESSINGTON STREET,1551852266000000000,-6.26814,53.356769,7,13,2,20,1,2,6,4
204,Blessington Street,BLESSINGTON STREET,1551853091000000000,-6.26814,53.356769,7,13,2,20,1,2,6,18
205,Blessington Street,BLESSINGTON STREET,1551853545000000000,-6.26814,53.356769,5,15,2,20,1,2,6,25
206,Blessington Street,BLESSINGTON STREET,1551853794000000000,-6.26814,53.356769,4,16,2,20,1,2,6,29
207,Blessington Street,BLESSINGTON STREET,1551854403000000000,-6.26814,53.356769,3,17,2,20,1,2,6,40
208,Blessington Street,BLESSINGTON STREET,1551854938000000000,-6.26814,53.356769,2,18,2,20,1,2,6,48
209,Blessington Street,BLESSINGTON STREET,1551854986000000000,-6.26814,53.356769,0,20,2,20,1,2,6,49
210,Blessington Street,BLESSINGTON STREET,1551855595000000000,-6.26814,53.356769,0,20,2,20,1,2,6,59
211,Blessington Street,BLESSINGTON STREET,1551856204000000000,-6.26814,53.356769,0,20,2,20,1,2,7,10
212,Blessington Street,BLESSINGTON STREET,1551856813000000000,-6.26814,53.356769,0,20,2,20,1,2,7,20
213,Blessington Street,BLESSINGTON STREET,1551857422000000000,-6.26814,53.356769,0,20,2,20,1,2,7,30
214,Blessington Street,BLESSINGTON STREET,1551858032000000000,-6.26814,53.356769,0,20,2,20,1,2,7,40
215,Blessington Street,BLESSINGTON STREET,1551858641000000000,-6.26814,53.356769,0,20,2,20,1,2,7,50
216,Blessington Street,BLESSINGTON STREET,1551859435000000000,-6.26814,53.356769,0,20,2,20,1,2,8,3
217,Blessington Street,BLESSINGTON STREET,1551860044000000000,-6.26814,53.356769,0,20,2,20,1,2,8,14
218,Blessington Street,BLESSINGTON STREET,1551860653000000000,-6.26814,53.356769,0,20,2,20,1,2,8,24
219,Blessington Street,BLESSINGTON STREET,1551861262000000000,-6.26814,53.356769,0,20,2,20,1,2,8,34
220,Blessington Street,BLESSINGTON STREET,1551861872000000000,-6.26814,53.356769,0,20,2,20,1,2,8,44
221,Blessington Street,BLESSINGTON STREET,1551862300000000000,-6.26814,53.356769,1,19,2,20,1,2,8,51
222,Blessington Street,BLESSINGTON STREET,1551862728000000000,-6.26814,53.356769,2,18,2,20,1,2,8,58
223,Blessington Street,BLESSINGTON STREET,1551862858000000000,-6.26814,53.356769,0,20,2,20,1,2,9,0
224,Blessington Street,BLESSINGTON STREET,1551863467000000000,-6.26814,53.356769,0,20,2,20,1,2,9,11
225,Blessington Street,BLESSINGTON STREET,1551864077000000000,-6.26814,53.356769,0,20,2,20,1,2,9,21
226,Blessington Street,BLESSINGTON STREET,1551864686000000000,-6.26814,53.356769,0,20,2,20,1,2,9,31
227,Blessington Street,BLESSINGTON STREET,1551865295000000000,-6.26814,53.356769,0,20,2,20,1,2,9,41
228,Blessington Street,BLESSINGTON STREET,1551865904000000000,-6.26814,53.356769,0,20,2,20,1,2,9,51
229,Blessington Street,BLESSINGTON STREET,1551866513000000000,-6.26814,53.356769,0,20,2,20,1,2,10,1
230,Blessington Street,BLESSINGTON STREET,1551867122000000000,-6.26814,53.356769,0,20,2,20,1,2,10,12
231,Blessington Street,BLESSINGTON STREET,1551867659000000000,-6.26814,53.356769,1,19,2,20,1,2,10,20
232,Blessington Street,BLESSINGTON STREET,1551868417000000000,-6.26814,53.356769,0,20,2,20,1,2,10,33
233,Blessington Street,BLESSINGTON STREET,1551869026000000000,-6.26814,53.356769,0,20,2,20,1,2,10,43
234,Blessington Street,BLESSINGTON STREET,1551869636000000000,-6.26814,53.356769,0,20,2,20,1,2,10,53
235,Blessington Street,BLESSINGTON STREET,1551869744000000000,-6.26814,53.356769,1,19,2,20,1,2,10,55
236,Blessington Street,BLESSINGTON STREET,1551870353000000000,-6.26814,53.356769,1,19,2,20,1,2,11,5
237,Blessington Street,BLESSINGTON STREET,1551870962000000000,-6.26814,53.356769,1,19,2,20,1,2,11,16
238,Blessington Street,BLESSINGTON STREET,1551871734000000000,-6.26814,53.356769,0,20,2,20,1,2,11,28
239,Blessington Street,BLESSINGTON STREET,1551872343000000000,-6.26814,53.356769,0,20,2,20,1,2,11,39
240,Blessington Street,BLESSINGTON STREET,1551872952000000000,-6.26814,53.356769,0,20,2,20,1,2,11,49
241,Blessington Street,BLESSINGTON STREET,1551873562000000000,-6.26814,53.356769,0,20,2,20,1,2,11,59
242,Blessington Street,BLESSINGTON STREET,1551874171000000000,-6.26814,53.356769,0,20,2,20,1,2,12,9
243,Blessington Street,BLESSINGTON STREET,1551874730000000000,-6.26814,53.356769,1,19,2,20,1,2,12,18
244,Blessington Street,BLESSINGTON STREET,1551874831000000000,-6.26814,53.356769,0,20,2,20,1,2,12,20
245,Blessington Street,BLESSINGTON STREET,1551875440000000000,-6.26814,53.356769,0,20,2,20,1,2,12,30
246,Blessington Street,BLESSINGTON STREET,1551876049000000000,-6.26814,53.356769,0,20,2,20,1,2,12,40
247,Blessington Street,BLESSINGTON STREET,1551876638000000000,-6.26814,53.356769,1,19,2,20,1,2,12,50
248,Blessington Street,BLESSINGTON STREET,1551877075000000000,-6.26814,53.356769,0,20,2,20,1,2,12,57
249,Blessington Street,BLESSINGTON STREET,1551877367000000000,-6.26814,53.356769,1,19,2,20,1,2,13,2
250,Blessington Street,BLESSINGTON STREET,1551877975000000000,-6.26814,53.356769,1,19,2,20,1,2,13,12
251,Blessington Street,BLESSINGTON STREET,1551878081000000000,-6.26814,53.356769,2,18,2,20,1,2,13,14
252,Blessington Street,BLESSINGTON STREET,1551878690000000000,-6.26814,53.356769,2,18,2,20,1,2,13,24
253,Blessington Street,BLESSINGTON STREET,1551879052000000000,-6.26814,53.356769,2,18,2,20,1,2,13,30
254,Blessington Street,BLESSINGTON STREET,1551879603000000000,-6.26814,53.356769,0,20,2,20,1,2,13,40
255,Blessington Street,BLESSINGTON STREET,1551880213000000000,-6.26814,53.356769,0,20,2,20,1,2,13,50
256,Blessington Street,BLESSINGTON STREET,1551880563000000000,-6.26814,53.356769,1,19,2,20,1,2,13,56
257,Blessington Street,BLESSINGTON STREET,1551881172000000000,-6.26814,53.356769,1,19,2,20,1,2,14,6
258,Blessington Street,BLESSINGTON STREET,1551881434000000000,-6.26814,53.356769,2,18,2,20,1,2,14,10
259,Blessington Street,BLESSINGTON STREET,1551881726000000000,-6.26814,53.356769,2,18,2,20,1,2,14,15
260,Blessington Street,BLESSINGTON STREET,1551882054000000000,-6.26814,53.356769,0,20,2,20,1,2,14,20
261,Blessington Street,BLESSINGTON STREET,1551882664000000000,-6.26814,53.356769,0,20,2,20,1,2,14,31
262,Blessington Street,BLESSINGTON STREET,1551883085000000000,-6.26814,53.356769,2,18,2,20,1,2,14,38
263,Blessington Street,BLESSINGTON STREET,1551883435000000000,-6.26814,53.356769,2,18,2,20,1,2,14,43
264,Blessington Street,BLESSINGTON STREET,1551883712000000000,-6.26814,53.356769,0,20,2,20,1,2,14,48
265,Blessington Street,BLESSINGTON STREET,1551884320000000000,-6.26814,53.356769,0,20,2,20,1,2,14,58
266,Blessington Street,BLESSINGTON STREET,1551884930000000000,-6.26814,53.356769,0,20,2,20,1,2,15,8
267,Blessington Street,BLESSINGTON STREET,1551885539000000000,-6.26814,53.356769,0,20,2,20,1,2,15,18
268,Blessington Street,BLESSINGTON STREET,1551886148000000000,-6.26814,53.356769,0,20,2,20,1,2,15,29
269,Blessington Street,BLESSINGTON STREET,1551886450000000000,-6.26814,53.356769,1,19,2,20,1,2,15,34
270,Blessington Street,BLESSINGTON STREET,1551887028000000000,-6.26814,53.356769,2,18,2,20,1,2,15,43
271,Blessington Street,BLESSINGTON STREET,1551887638000000000,-6.26814,53.356769,2,18,2,20,1,2,15,53
272,Blessington Street,BLESSINGTON STREET,1551888040000000000,-6.26814,53.356769,3,17,2,20,1,2,16,0
273,Blessington Street,BLESSINGTON STREET,1551888433000000000,-6.26814,53.356769,3,17,2,20,1,2,16,7
274,Blessington Street,BLESSINGTON STREET,1551889041000000000,-6.26814,53.356769,2,18,2,20,1,2,16,17
275,Blessington Street,BLESSINGTON STREET,1551889405000000000,-6.26814,53.356769,4,16,2,20,1,2,16,23
276,Blessington Street,BLESSINGTON STREET,1551889789000000000,-6.26814,53.356769,4,16,2,20,1,2,16,29
277,Blessington Street,BLESSINGTON STREET,1551890336000000000,-6.26814,53.356769,4,16,2,20,1,2,16,38
278,Blessington Street,BLESSINGTON STREET,1551890369000000000,-6.26814,53.356769,3,17,2,20,1,2,16,39
279,Blessington Street,BLESSINGTON STREET,1551891028000000000,-6.26814,53.356769,2,18,2,20,1,2,16,50
280,Blessington Street,BLESSINGTON STREET,1551891685000000000,-6.26814,53.356769,0,20,2,20,1,2,17,1
281,Blessington Street,BLESSINGTON STREET,1551892100000000000,-6.26814,53.356769,2,18,2,20,1,2,17,8
282,Blessington Street,BLESSINGTON STREET,1551892394000000000,-6.26814,53.356769,5,15,2,20,1,2,17,13
283,Blessington Street,BLESSINGTON STREET,1551892672000000000,-6.26814,53.356769,7,13,2,20,1,2,17,17
284,Blessington Street,BLESSINGTON STREET,1551892975000000000,-6.26814,53.356769,7,13,2,20,1,2,17,22
285,Blessington Street,BLESSINGTON STREET,1551893487000000000,-6.26814,53.356769,5,15,2,20,1,2,17,31
286,Blessington Street,BLESSINGTON STREET,1551893921000000000,-6.26814,53.356769,3,17,2,20,1,2,17,38
287,Blessington Street,BLESSINGTON STREET,1551893943000000000,-6.26814,53.356769,3,17,2,20,1,2,17,39
288,Blessington Street,BLESSINGTON STREET,1551894296000000000,-6.26814,53.356769,3,17,2,20,1,2,17,44
289,Blessington Street,BLESSINGTON STREET,1551894735000000000,-6.26814,53.356769,5,15,2,20,1,2,17,52
290,Blessington Street,BLESSINGTON STREET,1551895136000000000,-6.26814,53.356769,5,15,2,20,1,2,17,58
291,Blessington Street,BLESSINGTON STREET,1551895199000000000,-6.26814,53.356769,4,16,2,20,1,2,17,59
292,Blessington Street,BLESSINGTON STREET,1551895637000000000,-6.26814,53.356769,3,17,2,20,1,2,18,7
293,Blessington Street,BLESSINGTON STREET,1551896341000000000,-6.26814,53.356769,2,18,2,20,1,2,18,19
294,Blessington Street,BLESSINGTON STREET,1551896564000000000,-6.26814,53.356769,4,16,2,20,1,2,18,22
295,Blessington Street,BLESSINGTON STREET,1551896863000000000,-6.26814,53.356769,4,16,2,20,1,2,18,27
296,Blessington Street,BLESSINGTON STREET,1551897211000000000,-6.26814,53.356769,4,16,2,20,1,2,18,33
297,Blessington Street,BLESSINGTON STREET,1551897361000000000,-6.26814,53.356769,4,16,2,20,1,2,18,36
298,Blessington Street,BLESSINGTON STREET,1551897963000000000,-6.26814,53.356769,4,16,2,20,1,2,18,46
299,Blessington Street,BLESSINGTON STREET,1551898243000000000,-6.26814,53.356769,5,15,2,20,1,2,18,50
300,Blessington Street,BLESSINGTON STREET,1551898714000000000,-6.26814,53.356769,5,15,2,20,1,2,18,58
301,Blessington Street,BLESSINGTON STREET,1551898927000000000,-6.26814,53.356769,5,15,2,20,1,2,19,2
302,Blessington Street,BLESSINGTON STREET,1551899536000000000,-6.26814,53.356769,4,16,2,20,1,2,19,12
303,Blessington Street,BLESSINGTON STREET,1551900145000000000,-6.26814,53.356769,4,16,2,20,1,2,19,22
304,Blessington Street,BLESSINGTON STREET,1551900426000000000,-6.26814,53.356769,4,16,2,20,1,2,19,27
305,Blessington Street,BLESSINGTON STREET,1551900623000000000,-6.26814,53.356769,4,16,2,20,1,2,19,30
306,Blessington Street,BLESSINGTON STREET,1551901003000000000,-6.26814,53.356769,4,16,2,20,1,2,19,36
307,Blessington Street,BLESSINGTON STREET,1551901704000000000,-6.26814,53.356769,4,16,2,20,1,2,19,48
308,Blessington Street,BLESSINGTON STREET,1551902313000000000,-6.26814,53.356769,4,16,2,20,1,2,19,58
309,Blessington Street,BLESSINGTON STREET,1551902922000000000,-6.26814,53.356769,4,16,2,20,1,2,20,8
310,Blessington Street,BLESSINGTON STREET,1551903374000000000,-6.26814,53.356769,5,15,2,20,1,2,20,16
311,Blessington Street,BLESSINGTON STREET,1551903984000000000,-6.26814,53.356769,5,15,2,20,1,2,20,26
312,Blessington Street,BLESSINGTON STREET,1551904707000000000,-6.26814,53.356769,7,13,2,20,1,2,20,38
313,Blessington Street,BLESSINGTON STREET,1551905316000000000,-6.26814,53.356769,7,13,2,20,1,2,20,48
314,Blessington Street,BLESSINGTON STREET,1551905622000000000,-6.26814,53.356769,8,12,2,20,1,2,20,53
315,Blessington Street,BLESSINGTON STREET,1551905768000000000,-6.26814,53.356769,8,12,2,20,1,2,20,56
316,Blessington Street,BLESSINGTON STREET,1551906484000000000,-6.26814,53.356769,7,13,2,20,1,2,21,8
317,Blessington Street,BLESSINGTON STREET,1551907120000000000,-6.26814,53.356769,8,12,2,20,1,2,21,18
318,Blessington Street,BLESSINGTON STREET,1551907464000000000,-6.26814,53.356769,9,11,2,20,1,2,21,24
319,Blessington Street,BLESSINGTON STREET,1551908074000000000,-6.26814,53.356769,9,11,2,20,1,2,21,34
320,Blessington Street,BLESSINGTON STREET,1551908683000000000,-6.26814,53.356769,9,11,2,20,1,2,21,44
321,Blessington Street,BLESSINGTON STREET,1551909292000000000,-6.26814,53.356769,9,11,2,20,1,2,21,54
322,Blessington Street,BLESSINGTON STREET,1551909809000000000,-6.26814,53.356769,10,10,2,20,1,2,22,3
323,Blessington Street,BLESSINGTON STREET,1551910395000000000,-6.26814,53.356769,10,10,2,20,1,2,22,13
324,Blessington Street,BLESSINGTON STREET,1551910997000000000,-6.26814,53.356769,11,9,2,20,1,2,22,23
325,Blessington Street,BLESSINGTON STREET,1551911451000000000,-6.26814,53.356769,11,9,2,20,1,2,22,30
326,Blessington Street,BLESSINGTON STREET,1551912060000000000,-6.26814,53.356769,10,10,2,20,1,2,22,41
327,Blessington Street,BLESSINGTON STREET,1551912738000000000,-6.26814,53.356769,11,9,2,20,1,2,22,52
328,Blessington Street,BLESSINGTON STREET,1551913348000000000,-6.26814,53.356769,11,9,2,20,1,2,23,2
329,Blessington Street,BLESSINGTON STREET,1551913957000000000,-6.26814,53.356769,11,9,2,20,1,2,23,12
330,Blessington Street,BLESSINGTON STREET,1551914523000000000,-6.26814,53.356769,12,8,2,20,1,2,23,22
331,Blessington Street,BLESSINGTON STREET,1551915132000000000,-6.26814,53.356769,12,8,2,20,1,2,23,32
332,Blessington Street,BLESSINGTON STREET,1551915334000000000,-6.26814,53.356769,13,7,2,20,1,2,23,35
333,Blessington Street,BLESSINGTON STREET,1551915943000000000,-6.26814,53.356769,13,7,2,20,1,2,23,45
334,Blessington Street,BLESSINGTON STREET,1551916610000000000,-6.26814,53.356769,13,7,2,20,1,2,23,56
335,Blessington Street,BLESSINGTON STREET,1551917219000000000,-6.26814,53.356769,12,8,2,20,1,3,0,6
336,Blessington Street,BLESSINGTON STREET,1551917829000000000,-6.26814,53.356769,12,8,2,20,1,3,0,17
337,Blessington Street,BLESSINGTON STREET,1551918088000000000,-6.26814,53.356769,12,8,2,20,1,3,0,21
338,Blessington Street,BLESSINGTON STREET,1551918747000000000,-6.26814,53.356769,11,9,2,20,1,3,0,32
339,Blessington Street,BLESSINGTON STREET,1551919357000000000,-6.26814,53.356769,11,9,2,20,1,3,0,42
340,Blessington Street,BLESSINGTON STREET,1551919966000000000,-6.26814,53.356769,11,9,2,20,1,3,0,52
341,Blessington Street,BLESSINGTON STREET,1551920575000000000,-6.26814,53.356769,11,9,2,20,1,3,1,2
342,Blessington Street,BLESSINGTON STREET,1551921185000000000,-6.26814,53.356769,11,9,2,20,1,3,1,13
343,Blessington Street,BLESSINGTON STREET,1551921794000000000,-6.26814,53.356769,11,9,2,20,1,3,1,23
344,Blessington Street,BLESSINGTON STREET,1551922403000000000,-6.26814,53.356769,11,9,2,20,1,3,1,33
345,Blessington Street,BLESSINGTON STREET,1551923012000000000,-6.26814,53.356769,11,9,2,20,1,3,1,43
346,Blessington Street,BLESSINGTON STREET,1551923621000000000,-6.26814,53.356769,11,9,2,20,1,3,1,53
347,Blessington Street,BLESSINGTON STREET,1551924231000000000,-6.26814,53.356769,11,9,2,20,1,3,2,3
348,Blessington Street,BLESSINGTON STREET,1551924840000000000,-6.26814,53.356769,11,9,2,20,1,3,2,14
349,Blessington Street,BLESSINGTON STREET,1551925449000000000,-6.26814,53.356769,11,9,2,20,1,3,2,24
350,Blessington Street,BLESSINGTON STREET,1551925937000000000,-6.26814,53.356769,11,9,2,20,1,3,2,32
351,Blessington Street,BLESSINGTON STREET,1551926273000000000,-6.26814,53.356769,11,9,2,20,1,3,2,37
352,Blessington Street,BLESSINGTON STREET,1551926403000000000,-6.26814,53.356769,11,9,2,20,1,3,2,40
353,Blessington Street,BLESSINGTON STREET,1551927012000000000,-6.26814,53.356769,11,9,2,20,1,3,2,50
354,Blessington Street,BLESSINGTON STREET,1551927621000000000,-6.26814,53.356769,11,9,2,20,1,3,3,0
355,Blessington Street,BLESSINGTON STREET,1551928229000000000,-6.26814,53.356769,11,9,2,20,1,3,3,10
356,Blessington Street,BLESSINGTON STREET,1551928838000000000,-6.26814,53.356769,11,9,2,20,1,3,3,20
357,Blessington Street,BLESSINGTON STREET,1551929448000000000,-6.26814,53.356769,11,9,2,20,1,3,3,30
358,Blessington Street,BLESSINGTON STREET,1551930057000000000,-6.26814,53.356769,11,9,2,20,1,3,3,40
359,Blessington Street,BLESSINGTON STREET,1551930665000000000,-6.26814,53.356769,11,9,2,20,1,3,3,51
360,Blessington Street,BLESSINGTON STREET,1551931273000000000,-6.26814,53.356769,11,9,2,20,1,3,4,1
361,Blessington Street,BLESSINGTON STREET,1551931882000000000,-6.26814,53.356769,11,9,2,20,1,3,4,11
362,Blessington Street,BLESSINGTON STREET,1551932491000000000,-6.26814,53.356769,11,9,2,20,1,3,4,21
363,Blessington Street,BLESSINGTON STREET,1551933100000000000,-6.26814,53.356769,11,9,2,20,1,3,4,31
364,Blessington Street,BLESSINGTON STREET,1551933708000000000,-6.26814,53.356769,11,9,2,20,1,3,4,41
365,Blessington Street,BLESSINGTON STREET,1551934317000000000,-6.26814,53.356769,11,9,2,20,1,3,4,51
366,Blessington Street,BLESSINGTON STREET,1551934849000000000,-6.26814,53.356769,11,9,2,20,1,3,5,0
367,Blessington Street,BLESSINGTON STREET,1551935457000000000,-6.26814,53.356769,11,9,2,20,1,3,5,10
368,Blessington Street,BLESSINGTON STREET,1551936067000000000,-6.26814,53.356769,11,9,2,20,1,3,5,21
369,Blessington Street,BLESSINGTON STREET,1551936722000000000,-6.26814,53.356769,11,9,2,20,1,3,5,32
370,Blessington Street,BLESSINGTON STREET,1551937072000000000,-6.26814,53.356769,10,10,2,20,1,3,5,37
371,Blessington Street,BLESSINGTON STREET,1551937373000000000,-6.26814,53.356769,9,11,2,20,1,3,5,42
372,Blessington Street,BLESSINGTON STREET,1551937982000000000,-6.26814,53.356769,8,12,2,20,1,3,5,53
373,Blessington Street,BLESSINGTON STREET,1551938584000000000,-6.26814,53.356769,8,12,2,20,1,3,6,3
374,Blessington Street,BLESSINGTON STREET,1551939192000000000,-6.26814,53.356769,7,13,2,20,1,3,6,13
375,Blessington Street,BLESSINGTON STREET,1551939839000000000,-6.26814,53.356769,5,15,2,20,1,3,6,23
376,Blessington Street,BLESSINGTON STREET,1551940117000000000,-6.26814,53.356769,2,18,2,20,1,3,6,28
377,Blessington Street,BLESSINGTON STREET,1551940725000000000,-6.26814,53.356769,1,19,2,20,1,3,6,38
378,Blessington Street,BLESSINGTON STREET,1551941028000000000,-6.26814,53.356769,1,19,2,20,1,3,6,43
379,Blessington Street,BLESSINGTON STREET,1551941069000000000,-6.26814,53.356769,0,20,2,20,1,3,6,44
380,Blessington Street,BLESSINGTON STREET,1551941678000000000,-6.26814,53.356769,0,20,2,20,1,3,6,54
381,Blessington Street,BLESSINGTON STREET,1551942286000000000,-6.26814,53.356769,0,20,2,20,1,3,7,4
382,Blessington Street,BLESSINGTON STREET,1551942895000000000,-6.26814,53.356769,0,20,2,20,1,3,7,14
383,Blessington Street,BLESSINGTON STREET,1551943721000000000,-6.26814,53.356769,2,18,2,20,1,3,7,28
384,Blessington Street,BLESSINGTON STREET,1551943841000000000,-6.26814,53.356769,10,10,2,20,1,3,7,30
385,Blessington Street,BLESSINGTON STREET,1551944331000000000,-6.26814,53.356769,9,11,2,20,1,3,7,38
386,Blessington Street,BLESSINGTON STREET,1551944573000000000,-6.26814,53.356769,8,12,2,20,1,3,7,42
387,Blessington Street,BLESSINGTON STREET,1551944859000000000,-6.26814,53.356769,8,12,2,20,1,3,7,47
388,Blessington Street,BLESSINGTON STREET,1551945507000000000,-6.26814,53.356769,7,13,2,20,1,3,7,58
389,Blessington Street,BLESSINGTON STREET,1551945832000000000,-6.26814,53.356769,7,13,2,20,1,3,8,3
390,Blessington Street,BLESSINGTON STREET,1551946098000000000,-6.26814,53.356769,7,13,2,20,1,3,8,8
391,Blessington Street,BLESSINGTON STREET,1551946497000000000,-6.26814,53.356769,6,14,2,20,1,3,8,14
392,Blessington Street,BLESSINGTON STREET,1551947039000000000,-6.26814,53.356769,5,15,2,20,1,3,8,23
393,Blessington Street,BLESSINGTON STREET,1551947220000000000,-6.26814,53.356769,4,16,2,20,1,3,8,27
394,Blessington Street,BLESSINGTON STREET,1551947757000000000,-6.26814,53.356769,3,17,2,20,1,3,8,35
395,Blessington Street,BLESSINGTON STREET,1551948229000000000,-6.26814,53.356769,2,18,2,20,1,3,8,43
396,Blessington Street,BLESSINGTON STREET,1551948365000000000,-6.26814,53.356769,1,19,2,20,1,3,8,46
397,Blessington Street,BLESSINGTON STREET,1551948599000000000,-6.26814,53.356769,0,20,2,20,1,3,8,49
398,Blessington Street,BLESSINGTON STREET,1551949064000000000,-6.26814,53.356769,0,20,2,20,1,3,8,57
399,Blessington Street,BLESSINGTON STREET,1551949673000000000,-6.26814,53.356769,0,20,2,20,1,3,9,7
400,Blessington Street,BLESSINGTON STREET,1551950282000000000,-6.26814,53.356769,0,20,2,20,1,3,9,18
401,Blessington Street,BLESSINGTON STREET,1551950890000000000,-6.26814,53.356769,0,20,2,20,1,3,9,28
402,Blessington Street,BLESSINGTON STREET,1551951313000000000,-6.26814,53.356769,1,19,2,20,1,3,9,35
403,Blessington Street,BLESSINGTON STREET,1551952085000000000,-6.26814,53.356769,2,18,2,20,1,3,9,48
404,Blessington Street,BLESSINGTON STREET,1551952694000000000,-6.26814,53.356769,2,18,2,20,1,3,9,58
405,Blessington Street,BLESSINGTON STREET,1551953302000000000,-6.26814,53.356769,2,18,2,20,1,3,10,8
406,Blessington Street,BLESSINGTON STREET,1551953912000000000,-6.26814,53.356769,2,18,2,20,1,3,10,18
407,Blessington Street,BLESSINGTON STREET,1551954369000000000,-6.26814,53.356769,3,17,2,20,1,3,10,26
408,Blessington Street,BLESSINGTON STREET,1551954819000000000,-6.26814,53.356769,4,16,2,20,1,3,10,33
409,Blessington Street,BLESSINGTON STREET,1551955427000000000,-6.26814,53.356769,4,16,2,20,1,3,10,43
410,Blessington Street,BLESSINGTON STREET,1551955559000000000,-6.26814,53.356769,4,16,2,20,1,3,10,45
411,Blessington Street,BLESSINGTON STREET,1551956168000000000,-6.26814,53.356769,3,17,2,20,1,3,10,56
412,Blessington Street,BLESSINGTON STREET,1551956882000000000,-6.26814,53.356769,3,17,2,20,1,3,11,8
413,Blessington Street,BLESSINGTON STREET,1551957521000000000,-6.26814,53.356769,2,18,2,20,1,3,11,18
414,Blessington Street,BLESSINGTON STREET,1551957578000000000,-6.26814,53.356769,0,20,2,20,1,3,11,19
415,Blessington Street,BLESSINGTON STREET,1551958187000000000,-6.26814,53.356769,0,20,2,20,1,3,11,29
416,Blessington Street,BLESSINGTON STREET,1551958796000000000,-6.26814,53.356769,0,20,2,20,1,3,11,39
417,Blessington Street,BLESSINGTON STREET,1551959404000000000,-6.26814,53.356769,0,20,2,20,1,3,11,50
418,Blessington Street,BLESSINGTON STREET,1551960014000000000,-6.26814,53.356769,0,20,2,20,1,3,12,0
419,Blessington Street,BLESSINGTON STREET,1551960388000000000,-6.26814,53.356769,0,20,2,20,1,3,12,6
420,Blessington Street,BLESSINGTON STREET,1551960997000000000,-6.26814,53.356769,0,20,2,20,1,3,12,16
421,Blessington Street,BLESSINGTON STREET,1551961605000000000,-6.26814,53.356769,0,20,2,20,1,3,12,26
422,Blessington Street,BLESSINGTON STREET,1551961850000000000,-6.26814,53.356769,1,19,2,20,1,3,12,30
423,Blessington Street,BLESSINGTON STREET,1551962497000000000,-6.26814,53.356769,2,18,2,20,1,3,12,41
424,Blessington Street,BLESSINGTON STREET,1551963113000000000,-6.26814,53.356769,0,20,2,20,1,3,12,51
425,Blessington Street,BLESSINGTON STREET,1551963722000000000,-6.26814,53.356769,0,20,2,20,1,3,13,2
426,Blessington Street,BLESSINGTON STREET,1551964331000000000,-6.26814,53.356769,0,20,2,20,1,3,13,12
427,Blessington Street,BLESSINGTON STREET,1551964970000000000,-6.26814,53.356769,1,19,2,20,1,3,13,22
428,Blessington Street,BLESSINGTON STREET,1551965500000000000,-6.26814,53.356769,0,20,2,20,1,3,13,31
429,Blessington Street,BLESSINGTON STREET,1551966041000000000,-6.26814,53.356769,1,19,2,20,1,3,13,40
430,Blessington Street,BLESSINGTON STREET,1551966650000000000,-6.26814,53.356769,1,19,2,20,1,3,13,50
431,Blessington Street,BLESSINGTON STREET,1551966878000000000,-6.26814,53.356769,0,20,2,20,1,3,13,54
432,Blessington Street,BLESSINGTON STREET,1551967487000000000,-6.26814,53.356769,0,20,2,20,1,3,14,4
433,Blessington Street,BLESSINGTON STREET,1551968096000000000,-6.26814,53.356769,0,20,2,20,1,3,14,14
434,Blessington Street,BLESSINGTON STREET,1551968705000000000,-6.26814,53.356769,0,20,2,20,1,3,14,25
435,Blessington Street,BLESSINGTON STREET,1551969314000000000,-6.26814,53.356769,0,20,2,20,1,3,14,35
436,Blessington Street,BLESSINGTON STREET,1551969923000000000,-6.26814,53.356769,0,20,2,20,1,3,14,45
437,Blessington Street,BLESSINGTON STREET,1551970533000000000,-6.26814,53.356769,0,20,2,20,1,3,14,55
438,Blessington Street,BLESSINGTON STREET,1551971142000000000,-6.26814,53.356769,0,20,2,20,1,3,15,5
439,Blessington Street,BLESSINGTON STREET,1551971751000000000,-6.26814,53.356769,0,20,2,20,1,3,15,15
440,Blessington Street,BLESSINGTON STREET,1551972080000000000,-6.26814,53.356769,1,19,2,20,1,3,15,21
441,Blessington Street,BLESSINGTON STREET,1551972322000000000,-6.26814,53.356769,2,18,2,20,1,3,15,25
442,Blessington Street,BLESSINGTON STREET,1551972931000000000,-6.26814,53.356769,2,18,2,20,1,3,15,35
443,Blessington Street,BLESSINGTON STREET,1551973311000000000,-6.26814,53.356769,2,18,2,20,1,3,15,41
444,Blessington Street,BLESSINGTON STREET,1551973620000000000,-6.26814,53.356769,2,18,2,20,1,3,15,47
445,Blessington Street,BLESSINGTON STREET,1551974112000000000,-6.26814,53.356769,3,17,2,20,1,3,15,55
446,Blessington Street,BLESSINGTON STREET,1551974721000000000,-6.26814,53.356769,3,17,2,20,1,3,16,5
447,Blessington Street,BLESSINGTON STREET,1551975069000000000,-6.26814,53.356769,3,17,2,20,1,3,16,11
448,Blessington Street,BLESSINGTON STREET,1551975758000000000,-6.26814,53.356769,0,20,2,20,1,3,16,22
449,Blessington Street,BLESSINGTON STREET,1551976367000000000,-6.26814,53.356769,0,20,2,20,1,3,16,32
450,Blessington Street,BLESSINGTON STREET,1551976633000000000,-6.26814,53.356769,2,18,2,20,1,3,16,37
451,Blessington Street,BLESSINGTON STREET,1551977025000000000,-6.26814,53.356769,1,19,2,20,1,3,16,43
452,Blessington Street,BLESSINGTON STREET,1551977056000000000,-6.26814,53.356769,0,20,2,20,1,3,16,44
453,Blessington Street,BLESSINGTON STREET,1551977524000000000,-6.26814,53.356769,0,20,2,20,1,3,16,52
454,Blessington Street,BLESSINGTON STREET,1551978134000000000,-6.26814,53.356769,0,20,2,20,1,3,17,2
455,Blessington Street,BLESSINGTON STREET,1551978413000000000,-6.26814,53.356769,1,19,2,20,1,3,17,6
456,Blessington Street,BLESSINGTON STREET,1551978688000000000,-6.26814,53.356769,2,18,2,20,1,3,17,11
457,Blessington Street,BLESSINGTON STREET,1551979217000000000,-6.26814,53.356769,2,18,2,20,1,3,17,20
458,Blessington Street,BLESSINGTON STREET,1551979826000000000,-6.26814,53.356769,1,19,2,20,1,3,17,30
459,Blessington Street,BLESSINGTON STREET,1551980640000000000,-6.26814,53.356769,1,19,2,20,1,3,17,44
460,Blessington Street,BLESSINGTON STREET,1551980705000000000,-6.26814,53.356769,1,19,2,20,1,3,17,45
461,Blessington Street,BLESSINGTON STREET,1551981213000000000,-6.26814,53.356769,1,19,2,20,1,3,17,53
462,Blessington Street,BLESSINGTON STREET,1551981398000000000,-6.26814,53.356769,0,20,2,20,1,3,17,56
463,Blessington Street,BLESSINGTON STREET,1551981907000000000,-6.26814,53.356769,1,19,2,20,1,3,18,5
464,Blessington Street,BLESSINGTON STREET,1551982633000000000,-6.26814,53.356769,3,17,2,20,1,3,18,17
465,Blessington Street,BLESSINGTON STREET,1551982983000000000,-6.26814,53.356769,3,17,2,20,1,3,18,23
466,Blessington Street,BLESSINGTON STREET,1551983559000000000,-6.26814,53.356769,3,17,2,20,1,3,18,32
467,Blessington Street,BLESSINGTON STREET,1551983886000000000,-6.26814,53.356769,2,18,2,20,1,3,18,38
468,Blessington Street,BLESSINGTON STREET,1551984201000000000,-6.26814,53.356769,1,19,2,20,1,3,18,43
469,Blessington Street,BLESSINGTON STREET,1551984631000000000,-6.26814,53.356769,0,20,2,20,1,3,18,50
470,Blessington Street,BLESSINGTON STREET,1551985391000000000,-6.26814,53.356769,1,19,2,20,1,3,19,3
471,Blessington Street,BLESSINGTON STREET,1551985701000000000,-6.26814,53.356769,2,18,2,20,1,3,19,8
472,Blessington Street,BLESSINGTON STREET,1551986310000000000,-6.26814,53.356769,1,19,2,20,1,3,19,18
473,Blessington Street,BLESSINGTON STREET,1551986440000000000,-6.26814,53.356769,0,20,2,20,1,3,19,20
474,Blessington Street,BLESSINGTON STREET,1551986914000000000,-6.26814,53.356769,1,19,2,20,1,3,19,28
475,Blessington Street,BLESSINGTON STREET,1551987217000000000,-6.26814,53.356769,0,20,2,20,1,3,19,33
476,Blessington Street,BLESSINGTON STREET,1551987418000000000,-6.26814,53.356769,1,19,2,20,1,3,19,36
477,Blessington Street,BLESSINGTON STREET,1551987716000000000,-6.26814,53.356769,2,18,2,20,1,3,19,41
478,Blessington Street,BLESSINGTON STREET,1551988324000000000,-6.26814,53.356769,2,18,2,20,1,3,19,52
479,Blessington Street,BLESSINGTON STREET,1551988572000000000,-6.26814,53.356769,3,17,2,20,1,3,19,56
480,Blessington Street,BLESSINGTON STREET,1551988919000000000,-6.26814,53.356769,4,16,2,20,1,3,20,1
481,Blessington Street,BLESSINGTON STREET,1551989340000000000,-6.26814,53.356769,5,15,2,20,1,3,20,9
482,Blessington Street,BLESSINGTON STREET,1551989343000000000,-6.26814,53.356769,6,14,2,20,1,3,20,9
483,Blessington Street,BLESSINGTON STREET,1551989952000000000,-6.26814,53.356769,6,14,2,20,1,3,20,19
484,Blessington Street,BLESSINGTON STREET,1551990561000000000,-6.26814,53.356769,6,14,2,20,1,3,20,29
485,Blessington Street,BLESSINGTON STREET,1551991170000000000,-6.26814,53.356769,6,14,2,20,1,3,20,39
486,Blessington Street,BLESSINGTON STREET,1551991779000000000,-6.26814,53.356769,6,14,2,20,1,3,20,49
487,Blessington Street,BLESSINGTON STREET,1551992616000000000,-6.26814,53.356769,6,14,2,20,1,3,21,3
488,Blessington Street,BLESSINGTON STREET,1551993217000000000,-6.26814,53.356769,6,14,2,20,1,3,21,13
489,Blessington Street,BLESSINGTON STREET,1551993826000000000,-6.26814,53.356769,6,14,2,20,1,3,21,23
490,Blessington Street,BLESSINGTON STREET,1551994435000000000,-6.26814,53.356769,6,14,2,20,1,3,21,33
491,Blessington Street,BLESSINGTON STREET,1551994805000000000,-6.26814,53.356769,7,13,2,20,1,3,21,40
492,Blessington Street,BLESSINGTON STREET,1551995529000000000,-6.26814,53.356769,9,11,2,20,1,3,21,52
493,Blessington Street,BLESSINGTON STREET,1551995876000000000,-6.26814,53.356769,11,9,2,20,1,3,21,57
494,Blessington Street,BLESSINGTON STREET,1551996090000000000,-6.26814,53.356769,12,8,2,20,1,3,22,1
495,Blessington Street,BLESSINGTON STREET,1551996310000000000,-6.26814,53.356769,12,8,2,20,1,3,22,5
496,Blessington Street,BLESSINGTON STREET,1551996924000000000,-6.26814,53.356769,12,8,2,20,1,3,22,15
497,Blessington Street,BLESSINGTON STREET,1551997452000000000,-6.26814,53.356769,13,7,2,20,1,3,22,24
498,Blessington Street,BLESSINGTON STREET,1551998061000000000,-6.26814,53.356769,13,7,2,20,1,3,22,34
499,Blessington Street,BLESSINGTON STREET,1551998670000000000,-6.26814,53.356769,13,7,2,20,1,3,22,44
500,Blessington Street,BLESSINGTON STREET,1551999279000000000,-6.26814,53.356769,13,7,2,20,1,3,22,54
501,Blessington Street,BLESSINGTON STREET,1551999738000000000,-6.26814,53.356769,13,7,2,20,1,3,23,2
502,Blessington Street,BLESSINGTON STREET,1552000347000000000,-6.26814,53.356769,13,7,2,20,1,3,23,12
503,Blessington Street,BLESSINGTON STREET,1552000675000000000,-6.26814,53.356769,14,6,2,20,1,3,23,17
504,Blessington Street,BLESSINGTON STREET,1552001283000000000,-6.26814,53.356769,14,6,2,20,1,3,23,28
505,Blessington Street,BLESSINGTON STREET,1552001637000000000,-6.26814,53.356769,16,4,2,20,1,3,23,33
506,Blessington Street,BLESSINGTON STREET,1552002246000000000,-6.26814,53.356769,16,4,2,20,1,3,23,44
507,Blessington Street,BLESSINGTON STREET,1552002855000000000,-6.26814,53.356769,16,4,2,20,1,3,23,54
508,Blessington Street,BLESSINGTON STREET,1552003336000000000,-6.26814,53.356769,17,3,2,20,1,4,0,2
509,Blessington Street,BLESSINGTON STREET,1552003945000000000,-6.26814,53.356769,17,3,2,20,1,4,0,12
510,Blessington Street,BLESSINGTON STREET,1552004554000000000,-6.26814,53.356769,17,3,2,20,1,4,0,22
511,Blessington Street,BLESSINGTON STREET,1552005115000000000,-6.26814,53.356769,17,3,2,20,1,4,0,31
512,Blessington Street,BLESSINGTON STREET,1552005723000000000,-6.26814,53.356769,17,3,2,20,1,4,0,42
513,Blessington Street,BLESSINGTON STREET,1552006332000000000,-6.26814,53.356769,17,3,2,20,1,4,0,52
514,Blessington Street,BLESSINGTON STREET,1552006941000000000,-6.26814,53.356769,17,3,2,20,1,4,1,2
515,Blessington Street,BLESSINGTON STREET,1552007550000000000,-6.26814,53.356769,17,3,2,20,1,4,1,12
516,Blessington Street,BLESSINGTON STREET,1552008159000000000,-6.26814,53.356769,17,3,2,20,1,4,1,22
517,Blessington Street,BLESSINGTON STREET,1552008768000000000,-6.26814,53.356769,17,3,2,20,1,4,1,32
518,Blessington Street,BLESSINGTON STREET,1552009378000000000,-6.26814,53.356769,17,3,2,20,1,4,1,42
519,Blessington Street,BLESSINGTON STREET,1552009987000000000,-6.26814,53.356769,17,3,2,20,1,4,1,53
520,Blessington Street,BLESSINGTON STREET,1552010596000000000,-6.26814,53.356769,17,3,2,20,1,4,2,3
521,Blessington Street,BLESSINGTON STREET,1552011204000000000,-6.26814,53.356769,17,3,2,20,1,4,2,13
522,Blessington Street,BLESSINGTON STREET,1552011813000000000,-6.26814,53.356769,17,3,2,20,1,4,2,23
523,Blessington Street,BLESSINGTON STREET,1552012337000000000,-6.26814,53.356769,17,3,2,20,1,4,2,32
524,Blessington Street,BLESSINGTON STREET,1552012631000000000,-6.26814,53.356769,17,3,2,20,1,4,2,37
525,Blessington Street,BLESSINGTON STREET,1552013240000000000,-6.26814,53.356769,17,3,2,20,1,4,2,47
526,Blessington Street,BLESSINGTON STREET,1552013850000000000,-6.26814,53.356769,17,3,2,20,1,4,2,57
527,Blessington Street,BLESSINGTON STREET,1552014459000000000,-6.26814,53.356769,17,3,2,20,1,4,3,7
528,Blessington Street,BLESSINGTON STREET,1552015068000000000,-6.26814,53.356769,17,3,2,20,1,4,3,17
529,Blessington Street,BLESSINGTON STREET,1552015677000000000,-6.26814,53.356769,17,3,2,20,1,4,3,27
530,Blessington Street,BLESSINGTON STREET,1552016287000000000,-6.26814,53.356769,17,3,2,20,1,4,3,38
531,Blessington Street,BLESSINGTON STREET,1552016896000000000,-6.26814,53.356769,17,3,2,20,1,4,3,48
532,Blessington Street,BLESSINGTON STREET,1552017505000000000,-6.26814,53.356769,17,3,2,20,1,4,3,58
533,Blessington Street,BLESSINGTON STREET,1552018114000000000,-6.26814,53.356769,17,3,2,20,1,4,4,8
534,Blessington Street,BLESSINGTON STREET,1552018723000000000,-6.26814,53.356769,17,3,2,20,1,4,4,18
535,Blessington Street,BLESSINGTON STREET,1552019332000000000,-6.26814,53.356769,17,3,2,20,1,4,4,28
536,Blessington Street,BLESSINGTON STREET,1552019942000000000,-6.26814,53.356769,17,3,2,20,1,4,4,39
537,Blessington Street,BLESSINGTON STREET,1552020551000000000,-6.26814,53.356769,17,3,2,20,1,4,4,49
538,Blessington Street,BLESSINGTON STREET,1552021254000000000,-6.26814,53.356769,17,3,2,20,1,4,5,0
539,Blessington Street,BLESSINGTON STREET,1552021863000000000,-6.26814,53.356769,17,3,2,20,1,4,5,11
540,Blessington Street,BLESSINGTON STREET,1552022473000000000,-6.26814,53.356769,17,3,2,20,1,4,5,21
541,Blessington Street,BLESSINGTON STREET,1552023082000000000,-6.26814,53.356769,17,3,2,20,1,4,5,31
542,Blessington Street,BLESSINGTON STREET,1552023515000000000,-6.26814,53.356769,17,3,2,20,1,4,5,38
543,Blessington Street,BLESSINGTON STREET,1552024124000000000,-6.26814,53.356769,16,4,2,20,1,4,5,48
544,Blessington Street,BLESSINGTON STREET,1552024733000000000,-6.26814,53.356769,16,4,2,20,1,4,5,58
545,Blessington Street,BLESSINGTON STREET,1552024991000000000,-6.26814,53.356769,16,4,2,20,1,4,6,3
546,Blessington Street,BLESSINGTON STREET,1552025431000000000,-6.26814,53.356769,14,6,2,20,1,4,6,10
547,Blessington Street,BLESSINGTON STREET,1552026040000000000,-6.26814,53.356769,14,6,2,20,1,4,6,20
548,Blessington Street,BLESSINGTON STREET,1552026775000000000,-6.26814,53.356769,13,7,2,20,1,4,6,32
549,Blessington Street,BLESSINGTON STREET,1552027263000000000,-6.26814,53.356769,11,9,2,20,1,4,6,41
550,Blessington Street,BLESSINGTON STREET,1552027740000000000,-6.26814,53.356769,10,10,2,20,1,4,6,49
551,Blessington Street,BLESSINGTON STREET,1552027994000000000,-6.26814,53.356769,8,12,2,20,1,4,6,53
552,Blessington Street,BLESSINGTON STREET,1552028232000000000,-6.26814,53.356769,7,13,2,20,1,4,6,57
553,Blessington Street,BLESSINGTON STREET,1552028729000000000,-6.26814,53.356769,6,14,2,20,1,4,7,5
554,Blessington Street,BLESSINGTON STREET,1552029599000000000,-6.26814,53.356769,7,13,2,20,1,4,7,19
555,Blessington Street,BLESSINGTON STREET,1552029753000000000,-6.26814,53.356769,8,12,2,20,1,4,7,22
556,Blessington Street,BLESSINGTON STREET,1552030420000000000,-6.26814,53.356769,7,13,2,20,1,4,7,33
557,Blessington Street,BLESSINGTON STREET,1552030651000000000,-6.26814,53.356769,7,13,2,20,1,4,7,37
558,Blessington Street,BLESSINGTON STREET,1552031287000000000,-6.26814,53.356769,6,14,2,20,1,4,7,48
559,Blessington Street,BLESSINGTON STREET,1552031512000000000,-6.26814,53.356769,6,14,2,20,1,4,7,51
560,Blessington Street,BLESSINGTON STREET,1552031742000000000,-6.26814,53.356769,5,15,2,20,1,4,7,55
561,Blessington Street,BLESSINGTON STREET,1552032120000000000,-6.26814,53.356769,5,15,2,20,1,4,8,2
562,Blessington Street,BLESSINGTON STREET,1552032525000000000,-6.26814,53.356769,3,17,2,20,1,4,8,8
563,Blessington Street,BLESSINGTON STREET,1552032726000000000,-6.26814,53.356769,0,20,2,20,1,4,8,12
564,Blessington Street,BLESSINGTON STREET,1552033335000000000,-6.26814,53.356769,0,20,2,20,1,4,8,22
565,Blessington Street,BLESSINGTON STREET,1552033819000000000,-6.26814,53.356769,1,19,2,20,1,4,8,30
566,Blessington Street,BLESSINGTON STREET,1552034089000000000,-6.26814,53.356769,0,20,2,20,1,4,8,34
567,Blessington Street,BLESSINGTON STREET,1552034698000000000,-6.26814,53.356769,0,20,2,20,1,4,8,44
568,Blessington Street,BLESSINGTON STREET,1552035386000000000,-6.26814,53.356769,1,19,2,20,1,4,8,56
569,Blessington Street,BLESSINGTON STREET,1552035596000000000,-6.26814,53.356769,0,20,2,20,1,4,8,59
570,Blessington Street,BLESSINGTON STREET,1552036205000000000,-6.26814,53.356769,0,20,2,20,1,4,9,10
571,Blessington Street,BLESSINGTON STREET,1552036814000000000,-6.26814,53.356769,0,20,2,20,1,4,9,20
572,Blessington Street,BLESSINGTON STREET,1552037424000000000,-6.26814,53.356769,0,20,2,20,1,4,9,30
573,Blessington Street,BLESSINGTON STREET,1552038033000000000,-6.26814,53.356769,0,20,2,20,1,4,9,40
574,Blessington Street,BLESSINGTON STREET,1552038836000000000,-6.26814,53.356769,0,20,2,20,1,4,9,53
575,Blessington Street,BLESSINGTON STREET,1552039445000000000,-6.26814,53.356769,0,20,2,20,1,4,10,4
576,Blessington Street,BLESSINGTON STREET,1552040054000000000,-6.26814,53.356769,0,20,2,20,1,4,10,14
577,Blessington Street,BLESSINGTON STREET,1552040663000000000,-6.26814,53.356769,0,20,2,20,1,4,10,24
578,Blessington Street,BLESSINGTON STREET,1552041272000000000,-6.26814,53.356769,0,20,2,20,1,4,10,34
579,Blessington Street,BLESSINGTON STREET,1552041880000000000,-6.26814,53.356769,0,20,2,20,1,4,10,44
580,Blessington Street,BLESSINGTON STREET,1552042490000000000,-6.26814,53.356769,0,20,2,20,1,4,10,54
581,Blessington Street,BLESSINGTON STREET,1552043100000000000,-6.26814,53.356769,0,20,2,20,1,4,11,5
582,Blessington Street,BLESSINGTON STREET,1552043709000000000,-6.26814,53.356769,0,20,2,20,1,4,11,15
583,Blessington Street,BLESSINGTON STREET,1552044318000000000,-6.26814,53.356769,0,20,2,20,1,4,11,25
584,Blessington Street,BLESSINGTON STREET,1552044927000000000,-6.26814,53.356769,0,20,2,20,1,4,11,35
585,Blessington Street,BLESSINGTON STREET,1552045536000000000,-6.26814,53.356769,0,20,2,20,1,4,11,45
586,Blessington Street,BLESSINGTON STREET,1552045750000000000,-6.26814,53.356769,1,19,2,20,1,4,11,49
587,Blessington Street,BLESSINGTON STREET,1552046359000000000,-6.26814,53.356769,1,19,2,20,1,4,11,59
588,Blessington Street,BLESSINGTON STREET,1552046969000000000,-6.26814,53.356769,1,19,2,20,1,4,12,9
589,Blessington Street,BLESSINGTON STREET,1552047365000000000,-6.26814,53.356769,2,18,2,20,1,4,12,16
590,Blessington Street,BLESSINGTON STREET,1552047595000000000,-6.26814,53.356769,2,18,2,20,1,4,12,19
591,Blessington Street,BLESSINGTON STREET,1552048204000000000,-6.26814,53.356769,1,19,2,20,1,4,12,30
592,Blessington Street,BLESSINGTON STREET,1552048801000000000,-6.26814,53.356769,0,20,2,20,1,4,12,40
593,Blessington Street,BLESSINGTON STREET,1552049410000000000,-6.26814,53.356769,0,20,2,20,1,4,12,50
594,Blessington Street,BLESSINGTON STREET,1552050032000000000,-6.26814,53.356769,1,19,2,20,1,4,13,0
595,Blessington Street,BLESSINGTON STREET,1552050744000000000,-6.26814,53.356769,0,20,2,20,1,4,13,12
596,Blessington Street,BLESSINGTON STREET,1552051353000000000,-6.26814,53.356769,0,20,2,20,1,4,13,22
597,Blessington Street,BLESSINGTON STREET,1552051962000000000,-6.26814,53.356769,0,20,2,20,1,4,13,32
598,Blessington Street,BLESSINGTON STREET,1552052572000000000,-6.26814,53.356769,0,20,2,20,1,4,13,42
599,Blessington Street,BLESSINGTON STREET,1552052898000000000,-6.26814,53.356769,1,19,2,20,1,4,13,48
600,Blessington Street,BLESSINGTON STREET,1552053135000000000,-6.26814,53.356769,2,18,2,20,1,4,13,52
601,Blessington Street,BLESSINGTON STREET,1552053744000000000,-6.26814,53.356769,2,18,2,20,1,4,14,2
602,Blessington Street,BLESSINGTON STREET,1552053972000000000,-6.26814,53.356769,2,18,2,20,1,4,14,6
603,Blessington Street,BLESSINGTON STREET,1552054581000000000,-6.26814,53.356769,1,19,2,20,1,4,14,16
604,Blessington Street,BLESSINGTON STREET,1552055190000000000,-6.26814,53.356769,1,19,2,20,1,4,14,26
605,Blessington Street,BLESSINGTON STREET,1552055799000000000,-6.26814,53.356769,1,19,2,20,1,4,14,36
606,Blessington Street,BLESSINGTON STREET,1552056390000000000,-6.26814,53.356769,0,20,2,20,1,4,14,46
607,Blessington Street,BLESSINGTON STREET,1552057000000000000,-6.26814,53.356769,0,20,2,20,1,4,14,56
608,Blessington Street,BLESSINGTON STREET,1552057609000000000,-6.26814,53.356769,0,20,2,20,1,4,15,6
609,Blessington Street,BLESSINGTON STREET,1552058218000000000,-6.26814,53.356769,0,20,2,20,1,4,15,16
610,Blessington Street,BLESSINGTON STREET,1552058827000000000,-6.26814,53.356769,0,20,2,20,1,4,15,27
611,Blessington Street,BLESSINGTON STREET,1552059436000000000,-6.26814,53.356769,0,20,2,20,1,4,15,37
612,Blessington Street,BLESSINGTON STREET,1552060045000000000,-6.26814,53.356769,0,20,2,20,1,4,15,47
613,Blessington Street,BLESSINGTON STREET,1552060419000000000,-6.26814,53.356769,1,19,2,20,1,4,15,53
614,Blessington Street,BLESSINGTON STREET,1552060617000000000,-6.26814,53.356769,0,20,2,20,1,4,15,56
615,Blessington Street,BLESSINGTON STREET,1552061226000000000,-6.26814,53.356769,0,20,2,20,1,4,16,7
616,Blessington Street,BLESSINGTON STREET,1552061835000000000,-6.26814,53.356769,0,20,2,20,1,4,16,17
617,Blessington Street,BLESSINGTON STREET,1552062444000000000,-6.26814,53.356769,0,20,2,20,1,4,16,27
618,Blessington Street,BLESSINGTON STREET,1552063054000000000,-6.26814,53.356769,0,20,2,20,1,4,16,37
619,Blessington Street,BLESSINGTON STREET,1552063662000000000,-6.26814,53.356769,0,20,2,20,1,4,16,47
620,Blessington Street,BLESSINGTON STREET,1552063963000000000,-6.26814,53.356769,1,19,2,20,1,4,16,52
621,Blessington Street,BLESSINGTON STREET,1552064310000000000,-6.26814,53.356769,2,18,2,20,1,4,16,58
622,Blessington Street,BLESSINGTON STREET,1552064917000000000,-6.26814,53.356769,2,18,2,20,1,4,17,8
623,Blessington Street,BLESSINGTON STREET,1552065105000000000,-6.26814,53.356769,2,18,2,20,1,4,17,11
624,Blessington Street,BLESSINGTON STREET,1552065715000000000,-6.26814,53.356769,2,18,2,20,1,4,17,21
625,Blessington Street,BLESSINGTON STREET,1552066114000000000,-6.26814,53.356769,3,17,2,20,1,4,17,28
626,Blessington Street,BLESSINGTON STREET,1552066332000000000,-6.26814,53.356769,3,17,2,20,1,4,17,32
627,Blessington Street,BLESSINGTON STREET,1552066468000000000,-6.26814,53.356769,5,15,2,20,1,4,17,34
628,Blessington Street,BLESSINGTON STREET,1552066838000000000,-6.26814,53.356769,6,14,2,20,1,4,17,40
629,Blessington Street,BLESSINGTON STREET,1552067220000000000,-6.26814,53.356769,6,14,2,20,1,4,17,47
630,Blessington Street,BLESSINGTON STREET,1552067553000000000,-6.26814,53.356769,6,14,2,20,1,4,17,52
631,Blessington Street,BLESSINGTON STREET,1552067797000000000,-6.26814,53.356769,5,15,2,20,1,4,17,56
632,Blessington Street,BLESSINGTON STREET,1552068028000000000,-6.26814,53.356769,4,16,2,20,1,4,18,0
633,Blessington Street,BLESSINGTON STREET,1552068637000000000,-6.26814,53.356769,3,17,2,20,1,4,18,10
634,Blessington Street,BLESSINGTON STREET,1552069108000000000,-6.26814,53.356769,6,14,2,20,1,4,18,18
635,Blessington Street,BLESSINGTON STREET,1552069310000000000,-6.26814,53.356769,7,13,2,20,1,4,18,21
636,Blessington Street,BLESSINGTON STREET,1552069726000000000,-6.26814,53.356769,6,14,2,20,1,4,18,28
637,Blessington Street,BLESSINGTON STREET,1552069925000000000,-6.26814,53.356769,6,14,2,20,1,4,18,32
638,Blessington Street,BLESSINGTON STREET,1552070638000000000,-6.26814,53.356769,7,13,2,20,1,4,18,43
639,Blessington Street,BLESSINGTON STREET,1552070917000000000,-6.26814,53.356769,8,12,2,20,1,4,18,48
640,Blessington Street,BLESSINGTON STREET,1552071001000000000,-6.26814,53.356769,8,12,2,20,1,4,18,50
641,Blessington Street,BLESSINGTON STREET,1552071611000000000,-6.26814,53.356769,7,13,2,20,1,4,19,0
642,Blessington Street,BLESSINGTON STREET,1552072012000000000,-6.26814,53.356769,8,12,2,20,1,4,19,6
643,Blessington Street,BLESSINGTON STREET,1552072621000000000,-6.26814,53.356769,8,12,2,20,1,4,19,17
644,Blessington Street,BLESSINGTON STREET,1552073072000000000,-6.26814,53.356769,8,12,2,20,1,4,19,24
645,Blessington Street,BLESSINGTON STREET,1552073636000000000,-6.26814,53.356769,9,11,2,20,1,4,19,33
646,Blessington Street,BLESSINGTON STREET,1552073965000000000,-6.26814,53.356769,11,9,2,20,1,4,19,39
647,Blessington Street,BLESSINGTON STREET,1552074627000000000,-6.26814,53.356769,12,8,2,20,1,4,19,50
648,Blessington Street,BLESSINGTON STREET,1552075185000000000,-6.26814,53.356769,13,7,2,20,1,4,19,59
649,Blessington Street,BLESSINGTON STREET,1552075782000000000,-6.26814,53.356769,14,6,2,20,1,4,20,9
650,Blessington Street,BLESSINGTON STREET,1552076464000000000,-6.26814,53.356769,15,5,2,20,1,4,20,21
651,Blessington Street,BLESSINGTON STREET,1552076718000000000,-6.26814,53.356769,18,2,2,20,1,4,20,25
652,Blessington Street,BLESSINGTON STREET,1552077366000000000,-6.26814,53.356769,19,1,2,20,1,4,20,36
653,Blessington Street,BLESSINGTON STREET,1552078141000000000,-6.26814,53.356769,19,1,2,20,1,4,20,49
654,Blessington Street,BLESSINGTON STREET,1552078440000000000,-6.26814,53.356769,19,1,2,20,1,4,20,54
655,Blessington Street,BLESSINGTON STREET,1552078586000000000,-6.26814,53.356769,17,3,2,20,1,4,20,56
656,Blessington Street,BLESSINGTON STREET,1552079155000000000,-6.26814,53.356769,18,2,2,20,1,4,21,5
657,Blessington Street,BLESSINGTON STREET,1552079559000000000,-6.26814,53.356769,18,2,2,20,1,4,21,12
658,Blessington Street,BLESSINGTON STREET,1552080168000000000,-6.26814,53.356769,17,3,2,20,1,4,21,22
659,Blessington Street,BLESSINGTON STREET,1552080443000000000,-6.26814,53.356769,19,1,2,20,1,4,21,27
660,Blessington Street,BLESSINGTON STREET,1552080745000000000,-6.26814,53.356769,19,1,2,20,1,4,21,32
661,Blessington Street,BLESSINGTON STREET,1552081115000000000,-6.26814,53.356769,19,1,2,20,1,4,21,38
662,Blessington Street,BLESSINGTON STREET,1552081739000000000,-6.26814,53.356769,19,1,2,20,1,4,21,48
663,Blessington Street,BLESSINGTON STREET,1552081989000000000,-6.26814,53.356769,18,2,2,20,1,4,21,53
664,Blessington Street,BLESSINGTON STREET,1552082598000000000,-6.26814,53.356769,17,3,2,20,1,4,22,3
665,Blessington Street,BLESSINGTON STREET,1552083207000000000,-6.26814,53.356769,17,3,2,20,1,4,22,13
666,Blessington Street,BLESSINGTON STREET,1552083759000000000,-6.26814,53.356769,18,2,2,20,1,4,22,22
667,Blessington Street,BLESSINGTON STREET,1552084323000000000,-6.26814,53.356769,17,3,2,20,1,4,22,32
668,Blessington Street,BLESSINGTON STREET,1552084685000000000,-6.26814,53.356769,17,3,2,20,1,4,22,38
669,Blessington Street,BLESSINGTON STREET,1552085295000000000,-6.26814,53.356769,16,4,2,20,1,4,22,48
670,Blessington Street,BLESSINGTON STREET,1552085905000000000,-6.26814,53.356769,16,4,2,20,1,4,22,58
671,Blessington Street,BLESSINGTON STREET,1552086514000000000,-6.26814,53.356769,16,4,2,20,1,4,23,8
672,Blessington Street,BLESSINGTON STREET,1552087123000000000,-6.26814,53.356769,16,4,2,20,1,4,23,18
673,Blessington Street,BLESSINGTON STREET,1552087284000000000,-6.26814,53.356769,16,4,2,20,1,4,23,21
674,Blessington Street,BLESSINGTON STREET,1552087893000000000,-6.26814,53.356769,15,5,2,20,1,4,23,31
675,Blessington Street,BLESSINGTON STREET,1552088130000000000,-6.26814,53.356769,16,4,2,20,1,4,23,35
676,Blessington Street,BLESSINGTON STREET,1552088372000000000,-6.26814,53.356769,17,3,2,20,1,4,23,39
677,Blessington Street,BLESSINGTON STREET,1552089018000000000,-6.26814,53.356769,18,2,2,20,1,4,23,50
678,Blessington Street,BLESSINGTON STREET,1552089627000000000,-6.26814,53.356769,18,2,2,20,1,5,0,0
679,Blessington Street,BLESSINGTON STREET,1552090236000000000,-6.26814,53.356769,18,2,2,20,1,5,0,10
680,Blessington Street,BLESSINGTON STREET,1552090845000000000,-6.26814,53.356769,18,2,2,20,1,5,0,20
681,Blessington Street,BLESSINGTON STREET,1552091522000000000,-6.26814,53.356769,18,2,2,20,1,5,0,32
682,Blessington Street,BLESSINGTON STREET,1552092069000000000,-6.26814,53.356769,19,1,2,20,1,5,0,41
683,Blessington Street,BLESSINGTON STREET,1552092678000000000,-6.26814,53.356769,19,1,2,20,1,5,0,51
684,Blessington Street,BLESSINGTON STREET,1552093287000000000,-6.26814,53.356769,19,1,2,20,1,5,1,1
685,Blessington Street,BLESSINGTON STREET,1552093897000000000,-6.26814,53.356769,19,1,2,20,1,5,1,11
686,Blessington Street,BLESSINGTON STREET,1552094506000000000,-6.26814,53.356769,19,1,2,20,1,5,1,21
687,Blessington Street,BLESSINGTON STREET,1552095115000000000,-6.26814,53.356769,19,1,2,20,1,5,1,31
688,Blessington Street,BLESSINGTON STREET,1552095724000000000,-6.26814,53.356769,19,1,2,20,1,5,1,42
689,Blessington Street,BLESSINGTON STREET,1552096333000000000,-6.26814,53.356769,19,1,2,20,1,5,1,52
690,Blessington Street,BLESSINGTON STREET,1552096943000000000,-6.26814,53.356769,19,1,2,20,1,5,2,2
691,Blessington Street,BLESSINGTON STREET,1552097552000000000,-6.26814,53.356769,19,1,2,20,1,5,2,12
692,Blessington Street,BLESSINGTON STREET,1552098161000000000,-6.26814,53.356769,19,1,2,20,1,5,2,22
693,Blessington Street,BLESSINGTON STREET,1552098734000000000,-6.26814,53.356769,19,1,2,20,1,5,2,32
694,Blessington Street,BLESSINGTON STREET,1552099099000000000,-6.26814,53.356769,19,1,2,20,1,5,2,38
695,Blessington Street,BLESSINGTON STREET,1552099708000000000,-6.26814,53.356769,19,1,2,20,1,5,2,48
696,Blessington Street,BLESSINGTON STREET,1552100317000000000,-6.26814,53.356769,19,1,2,20,1,5,2,58
697,Blessington Street,BLESSINGTON STREET,1552100926000000000,-6.26814,53.356769,19,1,2,20,1,5,3,8
698,Blessington Street,BLESSINGTON STREET,1552101534000000000,-6.26814,53.356769,19,1,2,20,1,5,3,18
699,Blessington Street,BLESSINGTON STREET,1552102144000000000,-6.26814,53.356769,19,1,2,20,1,5,3,29
700,Blessington Street,BLESSINGTON STREET,1552102752000000000,-6.26814,53.356769,19,1,2,20,1,5,3,39
701,Blessington Street,BLESSINGTON STREET,1552103361000000000,-6.26814,53.356769,19,1,2,20,1,5,3,49
702,Blessington Street,BLESSINGTON STREET,1552103969000000000,-6.26814,53.356769,19,1,2,20,1,5,3,59
703,Blessington Street,BLESSINGTON STREET,1552104579000000000,-6.26814,53.356769,19,1,2,20,1,5,4,9
704,Blessington Street,BLESSINGTON STREET,1552105188000000000,-6.26814,53.356769,19,1,2,20,1,5,4,19
705,Blessington Street,BLESSINGTON STREET,1552105796000000000,-6.26814,53.356769,19,1,2,20,1,5,4,29
706,Blessington Street,BLESSINGTON STREET,1552106404000000000,-6.26814,53.356769,19,1,2,20,1,5,4,40
707,Blessington Street,BLESSINGTON STREET,1552107013000000000,-6.26814,53.356769,19,1,2,20,1,5,4,50
708,Blessington Street,BLESSINGTON STREET,1552107622000000000,-6.26814,53.356769,19,1,2,20,1,5,5,0
709,Blessington Street,BLESSINGTON STREET,1552108231000000000,-6.26814,53.356769,19,1,2,20,1,5,5,10
710,Blessington Street,BLESSINGTON STREET,1552108839000000000,-6.26814,53.356769,19,1,2,20,1,5,5,20
711,Blessington Street,BLESSINGTON STREET,1552109447000000000,-6.26814,53.356769,19,1,2,20,1,5,5,30
712,Blessington Street,BLESSINGTON STREET,1552110056000000000,-6.26814,53.356769,19,1,2,20,1,5,5,40
713,Blessington Street,BLESSINGTON STREET,1552110665000000000,-6.26814,53.356769,19,1,2,20,1,5,5,51
714,Blessington Street,BLESSINGTON STREET,1552111274000000000,-6.26814,53.356769,19,1,2,20,1,5,6,1
715,Blessington Street,BLESSINGTON STREET,1552111837000000000,-6.26814,53.356769,18,2,2,20,1,5,6,10
716,Blessington Street,BLESSINGTON STREET,1552112445000000000,-6.26814,53.356769,18,2,2,20,1,5,6,20
717,Blessington Street,BLESSINGTON STREET,1552112934000000000,-6.26814,53.356769,17,3,2,20,1,5,6,28
718,Blessington Street,BLESSINGTON STREET,1552113142000000000,-6.26814,53.356769,16,4,2,20,1,5,6,32
719,Blessington Street,BLESSINGTON STREET,1552113751000000000,-6.26814,53.356769,15,5,2,20,1,5,6,42
720,Blessington Street,BLESSINGTON STREET,1552114359000000000,-6.26814,53.356769,14,6,2,20,1,5,6,52
721,Blessington Street,BLESSINGTON STREET,1552114643000000000,-6.26814,53.356769,14,6,2,20,1,5,6,57
722,Blessington Street,BLESSINGTON STREET,1552115252000000000,-6.26814,53.356769,13,7,2,20,1,5,7,7
723,Blessington Street,BLESSINGTON STREET,1552115861000000000,-6.26814,53.356769,13,7,2,20,1,5,7,17
724,Blessington Street,BLESSINGTON STREET,1552116456000000000,-6.26814,53.356769,12,8,2,20,1,5,7,27
725,Blessington Street,BLESSINGTON STREET,1552116551000000000,-6.26814,53.356769,12,8,2,20,1,5,7,29
726,Blessington Street,BLESSINGTON STREET,1552117159000000000,-6.26814,53.356769,12,8,2,20,1,5,7,39
727,Blessington Street,BLESSINGTON STREET,1552117831000000000,-6.26814,53.356769,12,8,2,20,1,5,7,50
728,Blessington Street,BLESSINGTON STREET,1552118545000000000,-6.26814,53.356769,11,9,2,20,1,5,8,2
729,Blessington Street,BLESSINGTON STREET,1552119153000000000,-6.26814,53.356769,10,10,2,20,1,5,8,12
730,Blessington Street,BLESSINGTON STREET,1552119604000000000,-6.26814,53.356769,10,10,2,20,1,5,8,20
731,Blessington Street,BLESSINGTON STREET,1552120355000000000,-6.26814,53.356769,9,11,2,20,1,5,8,32
732,Blessington Street,BLESSINGTON STREET,1552120864000000000,-6.26814,53.356769,8,12,2,20,1,5,8,41
733,Blessington Street,BLESSINGTON STREET,1552121472000000000,-6.26814,53.356769,7,13,2,20,1,5,8,51
734,Blessington Street,BLESSINGTON STREET,1552121703000000000,-6.26814,53.356769,6,14,2,20,1,5,8,55
735,Blessington Street,BLESSINGTON STREET,1552122198000000000,-6.26814,53.356769,4,16,2,20,1,5,9,3
736,Blessington Street,BLESSINGTON STREET,1552122310000000000,-6.26814,53.356769,3,17,2,20,1,5,9,5
737,Blessington Street,BLESSINGTON STREET,1552122688000000000,-6.26814,53.356769,3,17,2,20,1,5,9,11
738,Blessington Street,BLESSINGTON STREET,1552123394000000000,-6.26814,53.356769,3,17,2,20,1,5,9,23
739,Blessington Street,BLESSINGTON STREET,1552123675000000000,-6.26814,53.356769,2,18,2,20,1,5,9,27
740,Blessington Street,BLESSINGTON STREET,1552124304000000000,-6.26814,53.356769,0,20,2,20,1,5,9,38
741,Blessington Street,BLESSINGTON STREET,1552124913000000000,-6.26814,53.356769,0,20,2,20,1,5,9,48
742,Blessington Street,BLESSINGTON STREET,1552125522000000000,-6.26814,53.356769,0,20,2,20,1,5,9,58
743,Blessington Street,BLESSINGTON STREET,1552126131000000000,-6.26814,53.356769,0,20,2,20,1,5,10,8
744,Blessington Street,BLESSINGTON STREET,1552126740000000000,-6.26814,53.356769,0,20,2,20,1,5,10,19
745,Blessington Street,BLESSINGTON STREET,1552127348000000000,-6.26814,53.356769,0,20,2,20,1,5,10,29
746,Blessington Street,BLESSINGTON STREET,1552127958000000000,-6.26814,53.356769,0,20,2,20,1,5,10,39
747,Blessington Street,BLESSINGTON STREET,1552128567000000000,-6.26814,53.356769,0,20,2,20,1,5,10,49
748,Blessington Street,BLESSINGTON STREET,1552129176000000000,-6.26814,53.356769,0,20,2,20,1,5,10,59
749,Blessington Street,BLESSINGTON STREET,1552129785000000000,-6.26814,53.356769,0,20,2,20,1,5,11,9
750,Blessington Street,BLESSINGTON STREET,1552130155000000000,-6.26814,53.356769,1,19,2,20,1,5,11,15
751,Blessington Street,BLESSINGTON STREET,1552130763000000000,-6.26814,53.356769,1,19,2,20,1,5,11,26
752,Blessington Street,BLESSINGTON STREET,1552131518000000000,-6.26814,53.356769,1,19,2,20,1,5,11,38
753,Blessington Street,BLESSINGTON STREET,1552131570000000000,-6.26814,53.356769,0,20,2,20,1,5,11,39
754,Blessington Street,BLESSINGTON STREET,1552132179000000000,-6.26814,53.356769,0,20,2,20,1,5,11,49
755,Blessington Street,BLESSINGTON STREET,1552132788000000000,-6.26814,53.356769,0,20,2,20,1,5,11,59
756,Blessington Street,BLESSINGTON STREET,1552133397000000000,-6.26814,53.356769,0,20,2,20,1,5,12,9
757,Blessington Street,BLESSINGTON STREET,1552134005000000000,-6.26814,53.356769,0,20,2,20,1,5,12,20
758,Blessington Street,BLESSINGTON STREET,1552134615000000000,-6.26814,53.356769,0,20,2,20,1,5,12,30
759,Blessington Street,BLESSINGTON STREET,1552135109000000000,-6.26814,53.356769,1,19,2,20,1,5,12,38
760,Blessington Street,BLESSINGTON STREET,1552135718000000000,-6.26814,53.356769,1,19,2,20,1,5,12,48
761,Blessington Street,BLESSINGTON STREET,1552136327000000000,-6.26814,53.356769,1,19,2,20,1,5,12,58
762,Blessington Street,BLESSINGTON STREET,1552136936000000000,-6.26814,53.356769,1,19,2,20,1,5,13,8
763,Blessington Street,BLESSINGTON STREET,1552137068000000000,-6.26814,53.356769,0,20,2,20,1,5,13,11
764,Blessington Street,BLESSINGTON STREET,1552137677000000000,-6.26814,53.356769,0,20,2,20,1,5,13,21
765,Blessington Street,BLESSINGTON STREET,1552138087000000000,-6.26814,53.356769,0,20,2,20,1,5,13,28
766,Blessington Street,BLESSINGTON STREET,1552138435000000000,-6.26814,53.356769,1,19,2,20,1,5,13,33
767,Blessington Street,BLESSINGTON STREET,1552138505000000000,-6.26814,53.356769,2,18,2,20,1,5,13,35
768,Blessington Street,BLESSINGTON STREET,1552138822000000000,-6.26814,53.356769,2,18,2,20,1,5,13,40
769,Blessington Street,BLESSINGTON STREET,1552139430000000000,-6.26814,53.356769,1,19,2,20,1,5,13,50
770,Blessington Street,BLESSINGTON STREET,1552139745000000000,-6.26814,53.356769,0,20,2,20,1,5,13,55
771,Blessington Street,BLESSINGTON STREET,1552140354000000000,-6.26814,53.356769,0,20,2,20,1,5,14,5
772,Blessington Street,BLESSINGTON STREET,1552141032000000000,-6.26814,53.356769,1,19,2,20,1,5,14,17
773,Blessington Street,BLESSINGTON STREET,1552141440000000000,-6.26814,53.356769,0,20,2,20,1,5,14,24
774,Blessington Street,BLESSINGTON STREET,1552142052000000000,-6.26814,53.356769,0,20,2,20,1,5,14,34
775,Blessington Street,BLESSINGTON STREET,1552142660000000000,-6.26814,53.356769,0,20,2,20,1,5,14,44
776,Blessington Street,BLESSINGTON STREET,1552143328000000000,-6.26814,53.356769,1,19,2,20,1,5,14,55
777,Blessington Street,BLESSINGTON STREET,1552143908000000000,-6.26814,53.356769,2,18,2,20,1,5,15,5
778,Blessington Street,BLESSINGTON STREET,1552144440000000000,-6.26814,53.356769,1,19,2,20,1,5,15,14
779,Blessington Street,BLESSINGTON STREET,1552144622000000000,-6.26814,53.356769,1,19,2,20,1,5,15,17
780,Blessington Street,BLESSINGTON STREET,1552144855000000000,-6.26814,53.356769,2,18,2,20,1,5,15,20
781,Blessington Street,BLESSINGTON STREET,1552145465000000000,-6.26814,53.356769,2,18,2,20,1,5,15,31
782,Blessington Street,BLESSINGTON STREET,1552145921000000000,-6.26814,53.356769,2,18,2,20,1,5,15,38
783,Blessington Street,BLESSINGTON STREET,1552146026000000000,-6.26814,53.356769,0,20,2,20,1,5,15,40
784,Blessington Street,BLESSINGTON STREET,1552146635000000000,-6.26814,53.356769,0,20,2,20,1,5,15,50
785,Blessington Street,BLESSINGTON STREET,1552147244000000000,-6.26814,53.356769,0,20,2,20,1,5,16,0
786,Blessington Street,BLESSINGTON STREET,1552147853000000000,-6.26814,53.356769,0,20,2,20,1,5,16,10
787,Blessington Street,BLESSINGTON STREET,1552148237000000000,-6.26814,53.356769,8,12,2,20,1,5,16,17
788,Blessington Street,BLESSINGTON STREET,1552148873000000000,-6.26814,53.356769,8,12,2,20,1,5,16,27
789,Blessington Street,BLESSINGTON STREET,1552149178000000000,-6.26814,53.356769,7,13,2,20,1,5,16,32
790,Blessington Street,BLESSINGTON STREET,1552149276000000000,-6.26814,53.356769,6,14,2,20,1,5,16,34
791,Blessington Street,BLESSINGTON STREET,1552149617000000000,-6.26814,53.356769,6,14,2,20,1,5,16,40
792,Blessington Street,BLESSINGTON STREET,1552150225000000000,-6.26814,53.356769,6,14,2,20,1,5,16,50
793,Blessington Street,BLESSINGTON STREET,1552150834000000000,-6.26814,53.356769,6,14,2,20,1,5,17,0
794,Blessington Street,BLESSINGTON STREET,1552151440000000000,-6.26814,53.356769,6,14,2,20,1,5,17,10
795,Blessington Street,BLESSINGTON STREET,1552151934000000000,-6.26814,53.356769,5,15,2,20,1,5,17,18
796,Blessington Street,BLESSINGTON STREET,1552152697000000000,-6.26814,53.356769,4,16,2,20,1,5,17,31
797,Blessington Street,BLESSINGTON STREET,1552153074000000000,-6.26814,53.356769,2,18,2,20,1,5,17,37
798,Blessington Street,BLESSINGTON STREET,1552153397000000000,-6.26814,53.356769,0,20,2,20,1,5,17,43
799,Blessington Street,BLESSINGTON STREET,1552154005000000000,-6.26814,53.356769,0,20,2,20,1,5,17,53
800,Blessington Street,BLESSINGTON STREET,1552154247000000000,-6.26814,53.356769,2,18,2,20,1,5,17,57
801,Blessington Street,BLESSINGTON STREET,1552154856000000000,-6.26814,53.356769,2,18,2,20,1,5,18,7
802,Blessington Street,BLESSINGTON STREET,1552155205000000000,-6.26814,53.356769,3,17,2,20,1,5,18,13
803,Blessington Street,BLESSINGTON STREET,1552155813000000000,-6.26814,53.356769,2,18,2,20,1,5,18,23
804,Blessington Street,BLESSINGTON STREET,1552156422000000000,-6.26814,53.356769,2,18,2,20,1,5,18,33
805,Blessington Street,BLESSINGTON STREET,1552156556000000000,-6.26814,53.356769,4,16,2,20,1,5,18,35
806,Blessington Street,BLESSINGTON STREET,1552157165000000000,-6.26814,53.356769,4,16,2,20,1,5,18,46
807,Blessington Street,BLESSINGTON STREET,1552157774000000000,-6.26814,53.356769,4,16,2,20,1,5,18,56
808,Blessington Street,BLESSINGTON STREET,1552158056000000000,-6.26814,53.356769,5,15,2,20,1,5,19,0
809,Blessington Street,BLESSINGTON STREET,1552158687000000000,-6.26814,53.356769,5,15,2,20,1,5,19,11
810,Blessington Street,BLESSINGTON STREET,1552159296000000000,-6.26814,53.356769,4,16,2,20,1,5,19,21
811,Blessington Street,BLESSINGTON STREET,1552159904000000000,-6.26814,53.356769,4,16,2,20,1,5,19,31
812,Blessington Street,BLESSINGTON STREET,1552160138000000000,-6.26814,53.356769,5,15,2,20,1,5,19,35
813,Blessington Street,BLESSINGTON STREET,1552160746000000000,-6.26814,53.356769,5,15,2,20,1,5,19,45
814,Blessington Street,BLESSINGTON STREET,1552161354000000000,-6.26814,53.356769,5,15,2,20,1,5,19,55
815,Blessington Street,BLESSINGTON STREET,1552161817000000000,-6.26814,53.356769,6,14,2,20,1,5,20,3
816,Blessington Street,BLESSINGTON STREET,1552161843000000000,-6.26814,53.356769,6,14,2,20,1,5,20,4
817,Blessington Street,BLESSINGTON STREET,1552162189000000000,-6.26814,53.356769,6,14,2,20,1,5,20,9
818,Blessington Street,BLESSINGTON STREET,1552162683000000000,-6.26814,53.356769,5,15,2,20,1,5,20,18
819,Blessington Street,BLESSINGTON STREET,1552163027000000000,-6.26814,53.356769,6,14,2,20,1,5,20,23
820,Blessington Street,BLESSINGTON STREET,1552163233000000000,-6.26814,53.356769,6,14,2,20,1,5,20,27
821,Blessington Street,BLESSINGTON STREET,1552163739000000000,-6.26814,53.356769,6,14,2,20,1,5,20,35
822,Blessington Street,BLESSINGTON STREET,1552164371000000000,-6.26814,53.356769,7,13,2,20,1,5,20,46
823,Blessington Street,BLESSINGTON STREET,1552164776000000000,-6.26814,53.356769,8,12,2,20,1,5,20,52
824,Blessington Street,BLESSINGTON STREET,1552165385000000000,-6.26814,53.356769,7,13,2,20,1,5,21,3
825,Blessington Street,BLESSINGTON STREET,1552165586000000000,-6.26814,53.356769,8,12,2,20,1,5,21,6
826,Blessington Street,BLESSINGTON STREET,1552165957000000000,-6.26814,53.356769,9,11,2,20,1,5,21,12
827,Blessington Street,BLESSINGTON STREET,1552166407000000000,-6.26814,53.356769,10,10,2,20,1,5,21,20
828,Blessington Street,BLESSINGTON STREET,1552167016000000000,-6.26814,53.356769,10,10,2,20,1,5,21,30
829,Blessington Street,BLESSINGTON STREET,1552167625000000000,-6.26814,53.356769,10,10,2,20,1,5,21,40
830,Blessington Street,BLESSINGTON STREET,1552168234000000000,-6.26814,53.356769,10,10,2,20,1,5,21,50
831,Blessington Street,BLESSINGTON STREET,1552168645000000000,-6.26814,53.356769,10,10,2,20,1,5,21,57
832,Blessington Street,BLESSINGTON STREET,1552169254000000000,-6.26814,53.356769,9,11,2,20,1,5,22,7
833,Blessington Street,BLESSINGTON STREET,1552169863000000000,-6.26814,53.356769,9,11,2,20,1,5,22,17
834,Blessington Street,BLESSINGTON STREET,1552170538000000000,-6.26814,53.356769,9,11,2,20,1,5,22,28
835,Blessington Street,BLESSINGTON STREET,1552170678000000000,-6.26814,53.356769,8,12,2,20,1,5,22,31
836,Blessington Street,BLESSINGTON STREET,1552171286000000000,-6.26814,53.356769,7,13,2,20,1,5,22,41
837,Blessington Street,BLESSINGTON STREET,1552171605000000000,-6.26814,53.356769,7,13,2,20,1,5,22,46
838,Blessington Street,BLESSINGTON STREET,1552172214000000000,-6.26814,53.356769,7,13,2,20,1,5,22,56
839,Blessington Street,BLESSINGTON STREET,1552172823000000000,-6.26814,53.356769,7,13,2,20,1,5,23,7
840,Blessington Street,BLESSINGTON STREET,1552173201000000000,-6.26814,53.356769,7,13,2,20,1,5,23,13
841,Blessington Street,BLESSINGTON STREET,1552173809000000000,-6.26814,53.356769,5,15,2,20,1,5,23,23
842,Blessington Street,BLESSINGTON STREET,1552174247000000000,-6.26814,53.356769,6,14,2,20,1,5,23,30
843,Blessington Street,BLESSINGTON STREET,1552174856000000000,-6.26814,53.356769,6,14,2,20,1,5,23,40
844,Blessington Street,BLESSINGTON STREET,1552175465000000000,-6.26814,53.356769,6,14,2,20,1,5,23,51
845,Blessington Street,BLESSINGTON STREET,1552176060000000000,-6.26814,53.356769,7,13,2,20,1,6,0,1
846,Blessington Street,BLESSINGTON STREET,1552176544000000000,-6.26814,53.356769,8,12,2,20,1,6,0,9
847,Blessington Street,BLESSINGTON STREET,1552177153000000000,-6.26814,53.356769,8,12,2,20,1,6,0,19
848,Blessington Street,BLESSINGTON STREET,1552177951000000000,-6.26814,53.356769,8,12,2,20,1,6,0,32
849,Blessington Street,BLESSINGTON STREET,1552178561000000000,-6.26814,53.356769,8,12,2,20,1,6,0,42
850,Blessington Street,BLESSINGTON STREET,1552179170000000000,-6.26814,53.356769,8,12,2,20,1,6,0,52
851,Blessington Street,BLESSINGTON STREET,1552179779000000000,-6.26814,53.356769,8,12,2,20,1,6,1,2
852,Blessington Street,BLESSINGTON STREET,1552180388000000000,-6.26814,53.356769,8,12,2,20,1,6,1,13
853,Blessington Street,BLESSINGTON STREET,1552180997000000000,-6.26814,53.356769,8,12,2,20,1,6,1,23
854,Blessington Street,BLESSINGTON STREET,1552181606000000000,-6.26814,53.356769,8,12,2,20,1,6,1,33
855,Blessington Street,BLESSINGTON STREET,1552182215000000000,-6.26814,53.356769,8,12,2,20,1,6,1,43
856,Blessington Street,BLESSINGTON STREET,1552182824000000000,-6.26814,53.356769,8,12,2,20,1,6,1,53
857,Blessington Street,BLESSINGTON STREET,1552183433000000000,-6.26814,53.356769,8,12,2,20,1,6,2,3
858,Blessington Street,BLESSINGTON STREET,1552184042000000000,-6.26814,53.356769,8,12,2,20,1,6,2,14
859,Blessington Street,BLESSINGTON STREET,1552184651000000000,-6.26814,53.356769,8,12,2,20,1,6,2,24
860,Blessington Street,BLESSINGTON STREET,1552185137000000000,-6.26814,53.356769,8,12,2,20,1,6,2,32
861,Blessington Street,BLESSINGTON STREET,1552185404000000000,-6.26814,53.356769,8,12,2,20,1,6,2,36
862,Blessington Street,BLESSINGTON STREET,1552186013000000000,-6.26814,53.356769,8,12,2,20,1,6,2,46
863,Blessington Street,BLESSINGTON STREET,1552186622000000000,-6.26814,53.356769,8,12,2,20,1,6,2,57
864,Blessington Street,BLESSINGTON STREET,1552187231000000000,-6.26814,53.356769,8,12,2,20,1,6,3,7
865,Blessington Street,BLESSINGTON STREET,1552187840000000000,-6.26814,53.356769,8,12,2,20,1,6,3,17
866,Blessington Street,BLESSINGTON STREET,1552188450000000000,-6.26814,53.356769,8,12,2,20,1,6,3,27
867,Blessington Street,BLESSINGTON STREET,1552189059000000000,-6.26814,53.356769,8,12,2,20,1,6,3,37
868,Blessington Street,BLESSINGTON STREET,1552189668000000000,-6.26814,53.356769,8,12,2,20,1,6,3,47
869,Blessington Street,BLESSINGTON STREET,1552190277000000000,-6.26814,53.356769,8,12,2,20,1,6,3,57
870,Blessington Street,BLESSINGTON STREET,1552190886000000000,-6.26814,53.356769,8,12,2,20,1,6,4,8
871,Blessington Street,BLESSINGTON STREET,1552191496000000000,-6.26814,53.356769,8,12,2,20,1,6,4,18
872,Blessington Street,BLESSINGTON STREET,1552192105000000000,-6.26814,53.356769,8,12,2,20,1,6,4,28
873,Blessington Street,BLESSINGTON STREET,1552192714000000000,-6.26814,53.356769,8,12,2,20,1,6,4,38
874,Blessington Street,BLESSINGTON STREET,1552193323000000000,-6.26814,53.356769,8,12,2,20,1,6,4,48
875,Blessington Street,BLESSINGTON STREET,1552193932000000000,-6.26814,53.356769,8,12,2,20,1,6,4,58
876,Blessington Street,BLESSINGTON STREET,1552194041000000000,-6.26814,53.356769,8,12,2,20,1,6,5,0
877,Blessington Street,BLESSINGTON STREET,1552194651000000000,-6.26814,53.356769,8,12,2,20,1,6,5,10
878,Blessington Street,BLESSINGTON STREET,1552195260000000000,-6.26814,53.356769,8,12,2,20,1,6,5,21
879,Blessington Street,BLESSINGTON STREET,1552195869000000000,-6.26814,53.356769,8,12,2,20,1,6,5,31
880,Blessington Street,BLESSINGTON STREET,1552196478000000000,-6.26814,53.356769,8,12,2,20,1,6,5,41
881,Blessington Street,BLESSINGTON STREET,1552197087000000000,-6.26814,53.356769,8,12,2,20,1,6,5,51
882,Blessington Street,BLESSINGTON STREET,1552197696000000000,-6.26814,53.356769,8,12,2,20,1,6,6,1
883,Blessington Street,BLESSINGTON STREET,1552198305000000000,-6.26814,53.356769,8,12,2,20,1,6,6,11
884,Blessington Street,BLESSINGTON STREET,1552198914000000000,-6.26814,53.356769,8,12,2,20,1,6,6,21
885,Blessington Street,BLESSINGTON STREET,1552199522000000000,-6.26814,53.356769,8,12,2,20,1,6,6,32
886,Blessington Street,BLESSINGTON STREET,1552200131000000000,-6.26814,53.356769,8,12,2,20,1,6,6,42
887,Blessington Street,BLESSINGTON STREET,1552200741000000000,-6.26814,53.356769,8,12,2,20,1,6,6,52
888,Blessington Street,BLESSINGTON STREET,1552201349000000000,-6.26814,53.356769,8,12,2,20,1,6,7,2
889,Blessington Street,BLESSINGTON STREET,1552202033000000000,-6.26814,53.356769,8,12,2,20,1,6,7,13
890,Blessington Street,BLESSINGTON STREET,1552202335000000000,-6.26814,53.356769,9,11,2,20,1,6,7,18
891,Blessington Street,BLESSINGTON STREET,1552202944000000000,-6.26814,53.356769,9,11,2,20,1,6,7,29
892,Blessington Street,BLESSINGTON STREET,1552203554000000000,-6.26814,53.356769,9,11,2,20,1,6,7,39
893,Blessington Street,BLESSINGTON STREET,1552204163000000000,-6.26814,53.356769,9,11,2,20,1,6,7,49
894,Blessington Street,BLESSINGTON STREET,1552204772000000000,-6.26814,53.356769,9,11,2,20,1,6,7,59
895,Blessington Street,BLESSINGTON STREET,1552205381000000000,-6.26814,53.356769,9,11,2,20,1,6,8,9
896,Blessington Street,BLESSINGTON STREET,1552205990000000000,-6.26814,53.356769,9,11,2,20,1,6,8,19
897,Blessington Street,BLESSINGTON STREET,1552206599000000000,-6.26814,53.356769,9,11,2,20,1,6,8,29
898,Blessington Street,BLESSINGTON STREET,1552207208000000000,-6.26814,53.356769,9,11,2,20,1,6,8,40
899,Blessington Street,BLESSINGTON STREET,1552208033000000000,-6.26814,53.356769,9,11,2,20,1,6,8,53
900,Blessington Street,BLESSINGTON STREET,1552208296000000000,-6.26814,53.356769,9,11,2,20,1,6,8,58
901,Blessington Street,BLESSINGTON STREET,1552208934000000000,-6.26814,53.356769,9,11,2,20,1,6,9,8
902,Blessington Street,BLESSINGTON STREET,1552209003000000000,-6.26814,53.356769,9,11,2,20,1,6,9,10
903,Blessington Street,BLESSINGTON STREET,1552209335000000000,-6.26814,53.356769,9,11,2,20,1,6,9,15
904,Blessington Street,BLESSINGTON STREET,1552209819000000000,-6.26814,53.356769,9,11,2,20,1,6,9,23
905,Blessington Street,BLESSINGTON STREET,1552210015000000000,-6.26814,53.356769,6,14,2,20,1,6,9,26
906,Blessington Street,BLESSINGTON STREET,1552210720000000000,-6.26814,53.356769,5,15,2,20,1,6,9,38
907,Blessington Street,BLESSINGTON STREET,1552211037000000000,-6.26814,53.356769,4,16,2,20,1,6,9,43
908,Blessington Street,BLESSINGTON STREET,1552211057000000000,-6.26814,53.356769,4,16,2,20,1,6,9,44
909,Blessington Street,BLESSINGTON STREET,1552211665000000000,-6.26814,53.356769,3,17,2,20,1,6,9,54
910,Blessington Street,BLESSINGTON STREET,1552212123000000000,-6.26814,53.356769,3,17,2,20,1,6,10,2
911,Blessington Street,BLESSINGTON STREET,1552212592000000000,-6.26814,53.356769,3,17,2,20,1,6,10,9
912,Blessington Street,BLESSINGTON STREET,1552213009000000000,-6.26814,53.356769,3,17,2,20,1,6,10,16
913,Blessington Street,BLESSINGTON STREET,1552213300000000000,-6.26814,53.356769,2,18,2,20,1,6,10,21
914,Blessington Street,BLESSINGTON STREET,1552213564000000000,-6.26814,53.356769,0,20,2,20,1,6,10,26
915,Blessington Street,BLESSINGTON STREET,1552214119000000000,-6.26814,53.356769,1,19,2,20,1,6,10,35
916,Blessington Street,BLESSINGTON STREET,1552214727000000000,-6.26814,53.356769,1,19,2,20,1,6,10,45
917,Blessington Street,BLESSINGTON STREET,1552215335000000000,-6.26814,53.356769,1,19,2,20,1,6,10,55
918,Blessington Street,BLESSINGTON STREET,1552215943000000000,-6.26814,53.356769,1,19,2,20,1,6,11,5
919,Blessington Street,BLESSINGTON STREET,1552216552000000000,-6.26814,53.356769,1,19,2,20,1,6,11,15
920,Blessington Street,BLESSINGTON STREET,1552217160000000000,-6.26814,53.356769,1,19,2,20,1,6,11,26
921,Blessington Street,BLESSINGTON STREET,1552217435000000000,-6.26814,53.356769,0,20,2,20,1,6,11,30
922,Blessington Street,BLESSINGTON STREET,1552218044000000000,-6.26814,53.356769,0,20,2,20,1,6,11,40
923,Blessington Street,BLESSINGTON STREET,1552218652000000000,-6.26814,53.356769,0,20,2,20,1,6,11,50
924,Blessington Street,BLESSINGTON STREET,1552219261000000000,-6.26814,53.356769,0,20,2,20,1,6,12,1
925,Blessington Street,BLESSINGTON STREET,1552219869000000000,-6.26814,53.356769,0,20,2,20,1,6,12,11
926,Blessington Street,BLESSINGTON STREET,1552220477000000000,-6.26814,53.356769,0,20,2,20,1,6,12,21
927,Blessington Street,BLESSINGTON STREET,1552221085000000000,-6.26814,53.356769,0,20,2,20,1,6,12,31
928,Blessington Street,BLESSINGTON STREET,1552221694000000000,-6.26814,53.356769,0,20,2,20,1,6,12,41
929,Blessington Street,BLESSINGTON STREET,1552222302000000000,-6.26814,53.356769,0,20,2,20,1,6,12,51
930,Blessington Street,BLESSINGTON STREET,1552222911000000000,-6.26814,53.356769,0,20,2,20,1,6,13,1
931,Blessington Street,BLESSINGTON STREET,1552223519000000000,-6.26814,53.356769,0,20,2,20,1,6,13,11
932,Blessington Street,BLESSINGTON STREET,1552224127000000000,-6.26814,53.356769,0,20,2,20,1,6,13,22
933,Blessington Street,BLESSINGTON STREET,1552224736000000000,-6.26814,53.356769,0,20,2,20,1,6,13,32
934,Blessington Street,BLESSINGTON STREET,1552225344000000000,-6.26814,53.356769,0,20,2,20,1,6,13,42
935,Blessington Street,BLESSINGTON STREET,1552226019000000000,-6.26814,53.356769,1,19,2,20,1,6,13,53
936,Blessington Street,BLESSINGTON STREET,1552226184000000000,-6.26814,53.356769,0,20,2,20,1,6,13,56
937,Blessington Street,BLESSINGTON STREET,1552226793000000000,-6.26814,53.356769,0,20,2,20,1,6,14,6
938,Blessington Street,BLESSINGTON STREET,1552227401000000000,-6.26814,53.356769,0,20,2,20,1,6,14,16
939,Blessington Street,BLESSINGTON STREET,1552227708000000000,-6.26814,53.356769,1,19,2,20,1,6,14,21
940,Blessington Street,BLESSINGTON STREET,1552228316000000000,-6.26814,53.356769,1,19,2,20,1,6,14,31
941,Blessington Street,BLESSINGTON STREET,1552228827000000000,-6.26814,53.356769,0,20,2,20,1,6,14,40
942,Blessington Street,BLESSINGTON STREET,1552229560000000000,-6.26814,53.356769,0,20,2,20,1,6,14,52
943,Blessington Street,BLESSINGTON STREET,1552230168000000000,-6.26814,53.356769,0,20,2,20,1,6,15,2
944,Blessington Street,BLESSINGTON STREET,1552230829000000000,-6.26814,53.356769,1,19,2,20,1,6,15,13
945,Blessington Street,BLESSINGTON STREET,1552231437000000000,-6.26814,53.356769,1,19,2,20,1,6,15,23
946,Blessington Street,BLESSINGTON STREET,1552232014000000000,-6.26814,53.356769,2,18,2,20,1,6,15,33
947,Blessington Street,BLESSINGTON STREET,1552232232000000000,-6.26814,53.356769,2,18,2,20,1,6,15,37
948,Blessington Street,BLESSINGTON STREET,1552232807000000000,-6.26814,53.356769,2,18,2,20,1,6,15,46
949,Blessington Street,BLESSINGTON STREET,1552233415000000000,-6.26814,53.356769,2,18,2,20,1,6,15,56
950,Blessington Street,BLESSINGTON STREET,1552233909000000000,-6.26814,53.356769,3,17,2,20,1,6,16,5
951,Blessington Street,BLESSINGTON STREET,1552234420000000000,-6.26814,53.356769,4,16,2,20,1,6,16,13
952,Blessington Street,BLESSINGTON STREET,1552235028000000000,-6.26814,53.356769,4,16,2,20,1,6,16,23
953,Blessington Street,BLESSINGTON STREET,1552235126000000000,-6.26814,53.356769,4,16,2,20,1,6,16,25
954,Blessington Street,BLESSINGTON STREET,1552235782000000000,-6.26814,53.356769,4,16,2,20,1,6,16,36
955,Blessington Street,BLESSINGTON STREET,1552236390000000000,-6.26814,53.356769,3,17,2,20,1,6,16,46
956,Blessington Street,BLESSINGTON STREET,1552236998000000000,-6.26814,53.356769,3,17,2,20,1,6,16,56
957,Blessington Street,BLESSINGTON STREET,1552237607000000000,-6.26814,53.356769,3,17,2,20,1,6,17,6
958,Blessington Street,BLESSINGTON STREET,1552237833000000000,-6.26814,53.356769,2,18,2,20,1,6,17,10
959,Blessington Street,BLESSINGTON STREET,1552238431000000000,-6.26814,53.356769,2,18,2,20,1,6,17,20
960,Blessington Street,BLESSINGTON STREET,1552238902000000000,-6.26814,53.356769,2,18,2,20,1,6,17,28
961,Blessington Street,BLESSINGTON STREET,1552238980000000000,-6.26814,53.356769,2,18,2,20,1,6,17,29
962,Blessington Street,BLESSINGTON STREET,1552239806000000000,-6.26814,53.356769,3,17,2,20,1,6,17,43
963,Blessington Street,BLESSINGTON STREET,1552240415000000000,-6.26814,53.356769,3,17,2,20,1,6,17,53
964,Blessington Street,BLESSINGTON STREET,1552241023000000000,-6.26814,53.356769,3,17,2,20,1,6,18,3
965,Blessington Street,BLESSINGTON STREET,1552241632000000000,-6.26814,53.356769,3,17,2,20,1,6,18,13
966,Blessington Street,BLESSINGTON STREET,1552241702000000000,-6.26814,53.356769,3,17,2,20,1,6,18,15
967,Blessington Street,BLESSINGTON STREET,1552242310000000000,-6.26814,53.356769,2,18,2,20,1,6,18,25
968,Blessington Street,BLESSINGTON STREET,1552242784000000000,-6.26814,53.356769,0,20,2,20,1,6,18,33
969,Blessington Street,BLESSINGTON STREET,1552243319000000000,-6.26814,53.356769,1,19,2,20,1,6,18,41
970,Blessington Street,BLESSINGTON STREET,1552243927000000000,-6.26814,53.356769,1,19,2,20,1,6,18,52
971,Blessington Street,BLESSINGTON STREET,1552244149000000000,-6.26814,53.356769,0,20,2,20,1,6,18,55
972,Blessington Street,BLESSINGTON STREET,1552244722000000000,-6.26814,53.356769,1,19,2,20,1,6,19,5
973,Blessington Street,BLESSINGTON STREET,1552245534000000000,-6.26814,53.356769,1,19,2,20,1,6,19,18
974,Blessington Street,BLESSINGTON STREET,1552246363000000000,-6.26814,53.356769,2,18,2,20,1,6,19,32
975,Blessington Street,BLESSINGTON STREET,1552246971000000000,-6.26814,53.356769,2,18,2,20,1,6,19,42
976,Blessington Street,BLESSINGTON STREET,1552247335000000000,-6.26814,53.356769,2,18,2,20,1,6,19,48
977,Blessington Street,BLESSINGTON STREET,1552247823000000000,-6.26814,53.356769,2,18,2,20,1,6,19,57
978,Blessington Street,BLESSINGTON STREET,1552248431000000000,-6.26814,53.356769,2,18,2,20,1,6,20,7
979,Blessington Street,BLESSINGTON STREET,1552249039000000000,-6.26814,53.356769,2,18,2,20,1,6,20,17
980,Blessington Street,BLESSINGTON STREET,1552249679000000000,-6.26814,53.356769,2,18,2,20,1,6,20,27
981,Blessington Street,BLESSINGTON STREET,1552250287000000000,-6.26814,53.356769,1,19,2,20,1,6,20,38
982,Blessington Street,BLESSINGTON STREET,1552250895000000000,-6.26814,53.356769,1,19,2,20,1,6,20,48
983,Blessington Street,BLESSINGTON STREET,1552251445000000000,-6.26814,53.356769,2,18,2,20,1,6,20,57
984,Blessington Street,BLESSINGTON STREET,1552252052000000000,-6.26814,53.356769,2,18,2,20,1,6,21,7
985,Blessington Street,BLESSINGTON STREET,1552252305000000000,-6.26814,53.356769,3,17,2,20,1,6,21,11
986,Blessington Street,BLESSINGTON STREET,1552253035000000000,-6.26814,53.356769,3,17,2,20,1,6,21,23
987,Blessington Street,BLESSINGTON STREET,1552253171000000000,-6.26814,53.356769,3,17,2,20,1,6,21,26
988,Blessington Street,BLESSINGTON STREET,1552253778000000000,-6.26814,53.356769,3,17,2,20,1,6,21,36
989,Blessington Street,BLESSINGTON STREET,1552254387000000000,-6.26814,53.356769,3,17,2,20,1,6,21,46
990,Blessington Street,BLESSINGTON STREET,1552254995000000000,-6.26814,53.356769,3,17,2,20,1,6,21,56
991,Blessington Street,BLESSINGTON STREET,1552255602000000000,-6.26814,53.356769,3,17,2,20,1,6,22,6
992,Blessington Street,BLESSINGTON STREET,1552255965000000000,-6.26814,53.356769,4,16,2,20,1,6,22,12
993,Blessington Street,BLESSINGTON STREET,1552256603000000000,-6.26814,53.356769,5,15,2,20,1,6,22,23
994,Blessington Street,BLESSINGTON STREET,1552257211000000000,-6.26814,53.356769,5,15,2,20,1,6,22,33
995,Blessington Street,BLESSINGTON STREET,1552257818000000000,-6.26814,53.356769,5,15,2,20,1,6,22,43
996,Blessington Street,BLESSINGTON STREET,1552258427000000000,-6.26814,53.356769,5,15,2,20,1,6,22,53
997,Blessington Street,BLESSINGTON STREET,1552259035000000000,-6.26814,53.356769,5,15,2,20,1,6,23,3
998,Blessington Street,BLESSINGTON STREET,1552259643000000000,-6.26814,53.356769,5,15,2,20,1,6,23,14
999,Blessington Street,BLESSINGTON STREET,1552260067000000000,-6.26814,53.356769,5,15,2,20,1,6,23,21
1000,Blessington Street,BLESSINGTON STREET,1552260674000000000,-6.26814,53.356769,4,16,2,20,1,6,23,31
1001,Blessington Street,BLESSINGTON STREET,1552261282000000000,-6.26814,53.356769,4,16,2,20,1,6,23,41
1002,Blessington Street,BLESSINGTON STREET,1552261890000000000,-6.26814,53.356769,4,16,2,20,1,6,23,51
1003,Blessington Street,BLESSINGTON STREET,1552262544000000000,-6.26814,53.356769,5,15,2,20,1,0,0,2
1004,Blessington Street,BLESSINGTON STREET,1552263152000000000,-6.26814,53.356769,5,15,2,20,1,0,0,12
1005,Blessington Street,BLESSINGTON STREET,1552263761000000000,-6.26814,53.356769,5,15,2,20,1,0,0,22
1006,Blessington Street,BLESSINGTON STREET,1552264369000000000,-6.26814,53.356769,5,15,2,20,1,0,0,32
1007,Blessington Street,BLESSINGTON STREET,1552264976000000000,-6.26814,53.356769,5,15,2,20,1,0,0,42
1008,Blessington Street,BLESSINGTON STREET,1552265584000000000,-6.26814,53.356769,5,15,2,20,1,0,0,53
1009,Blessington Street,BLESSINGTON STREET,1552266193000000000,-6.26814,53.356769,5,15,2,20,1,0,1,3
1010,Blessington Street,BLESSINGTON STREET,1552266801000000000,-6.26814,53.356769,5,15,2,20,1,0,1,13
1011,Blessington Street,BLESSINGTON STREET,1552267408000000000,-6.26814,53.356769,5,15,2,20,1,0,1,23
1012,Blessington Street,BLESSINGTON STREET,1552268016000000000,-6.26814,53.356769,5,15,2,20,1,0,1,33
1013,Blessington Street,BLESSINGTON STREET,1552268624000000000,-6.26814,53.356769,5,15,2,20,1,0,1,43
1014,Blessington Street,BLESSINGTON STREET,1552269233000000000,-6.26814,53.356769,5,15,2,20,1,0,1,53
1015,Blessington Street,BLESSINGTON STREET,1552269841000000000,-6.26814,53.356769,5,15,2,20,1,0,2,4
1016,Blessington Street,BLESSINGTON STREET,1552270449000000000,-6.26814,53.356769,5,15,2,20,1,0,2,14
1017,Blessington Street,BLESSINGTON STREET,1552271058000000000,-6.26814,53.356769,5,15,2,20,1,0,2,24
1018,Blessington Street,BLESSINGTON STREET,1552271537000000000,-6.26814,53.356769,5,15,2,20,1,0,2,32
1019,Blessington Street,BLESSINGTON STREET,1552271894000000000,-6.26814,53.356769,5,15,2,20,1,0,2,38
1020,Blessington Street,BLESSINGTON STREET,1552272502000000000,-6.26814,53.356769,5,15,2,20,1,0,2,48
1021,Blessington Street,BLESSINGTON STREET,1552273110000000000,-6.26814,53.356769,5,15,2,20,1,0,2,58
1022,Blessington Street,BLESSINGTON STREET,1552273718000000000,-6.26814,53.356769,5,15,2,20,1,0,3,8
1023,Blessington Street,BLESSINGTON STREET,1552274326000000000,-6.26814,53.356769,5,15,2,20,1,0,3,18
1024,Blessington Street,BLESSINGTON STREET,1552274934000000000,-6.26814,53.356769,5,15,2,20,1,0,3,28
1025,Blessington Street,BLESSINGTON STREET,1552275542000000000,-6.26814,53.356769,5,15,2,20,1,0,3,39
1026,Blessington Street,BLESSINGTON STREET,1552276150000000000,-6.26814,53.356769,5,15,2,20,1,0,3,49
1027,Blessington Street,BLESSINGTON STREET,1552276758000000000,-6.26814,53.356769,5,15,2,20,1,0,3,59
1028,Blessington Street,BLESSINGTON STREET,1552277367000000000,-6.26814,53.356769,5,15,2,20,1,0,4,9
1029,Blessington Street,BLESSINGTON STREET,1552277975000000000,-6.26814,53.356769,5,15,2,20,1,0,4,19
1030,Blessington Street,BLESSINGTON STREET,1552278583000000000,-6.26814,53.356769,5,15,2,20,1,0,4,29
1031,Blessington Street,BLESSINGTON STREET,1552279191000000000,-6.26814,53.356769,5,15,2,20,1,0,4,39
1032,Blessington Street,BLESSINGTON STREET,1552279800000000000,-6.26814,53.356769,5,15,2,20,1,0,4,50
1033,Blessington Street,BLESSINGTON STREET,1552280419000000000,-6.26814,53.356769,5,15,2,20,1,0,5,0
1034,Blessington Street,BLESSINGTON STREET,1552281026000000000,-6.26814,53.356769,5,15,2,20,1,0,5,10
1035,Blessington Street,BLESSINGTON STREET,1552281635000000000,-6.26814,53.356769,5,15,2,20,1,0,5,20
1036,Blessington Street,BLESSINGTON STREET,1552282243000000000,-6.26814,53.356769,5,15,2,20,1,0,5,30
1037,Blessington Street,BLESSINGTON STREET,1552282851000000000,-6.26814,53.356769,5,15,2,20,1,0,5,40
1038,Blessington Street,BLESSINGTON STREET,1552283459000000000,-6.26814,53.356769,5,15,2,20,1,0,5,50
1039,Blessington Street,BLESSINGTON STREET,1552284130000000000,-6.26814,53.356769,16,4,2,20,1,0,6,2
1040,Blessington Street,BLESSINGTON STREET,1552284738000000000,-6.26814,53.356769,16,4,2,20,1,0,6,12
1041,Blessington Street,BLESSINGTON STREET,1552285137000000000,-6.26814,53.356769,16,4,2,20,1,0,6,18
1042,Blessington Street,BLESSINGTON STREET,1552285437000000000,-6.26814,53.356769,16,4,2,20,1,0,6,23
1043,Blessington Street,BLESSINGTON STREET,1552285511000000000,-6.26814,53.356769,14,6,2,20,1,0,6,25
1044,Blessington Street,BLESSINGTON STREET,1552285913000000000,-6.26814,53.356769,13,7,2,20,1,0,6,31
1045,Blessington Street,BLESSINGTON STREET,1552286521000000000,-6.26814,53.356769,12,8,2,20,1,0,6,42
1046,Blessington Street,BLESSINGTON STREET,1552286849000000000,-6.26814,53.356769,11,9,2,20,1,0,6,47
1047,Blessington Street,BLESSINGTON STREET,1552287109000000000,-6.26814,53.356769,11,9,2,20,1,0,6,51
1048,Blessington Street,BLESSINGTON STREET,1552287318000000000,-6.26814,53.356769,10,10,2,20,1,0,6,55
1049,Blessington Street,BLESSINGTON STREET,1552287926000000000,-6.26814,53.356769,9,11,2,20,1,0,7,5
1050,Blessington Street,BLESSINGTON STREET,1552288441000000000,-6.26814,53.356769,9,11,2,20,1,0,7,14
1051,Blessington Street,BLESSINGTON STREET,1552288601000000000,-6.26814,53.356769,5,15,2,20,1,0,7,16
1052,Blessington Street,BLESSINGTON STREET,1552289209000000000,-6.26814,53.356769,4,16,2,20,1,0,7,26
1053,Blessington Street,BLESSINGTON STREET,1552289542000000000,-6.26814,53.356769,5,15,2,20,1,0,7,32
1054,Blessington Street,BLESSINGTON STREET,1552290128000000000,-6.26814,53.356769,4,16,2,20,1,0,7,42
1055,Blessington Street,BLESSINGTON STREET,1552290317000000000,-6.26814,53.356769,3,17,2,20,1,0,7,45
1056,Blessington Street,BLESSINGTON STREET,1552290925000000000,-6.26814,53.356769,2,18,2,20,1,0,7,55
1057,Blessington Street,BLESSINGTON STREET,1552291300000000000,-6.26814,53.356769,3,17,2,20,1,0,8,1
1058,Blessington Street,BLESSINGTON STREET,1552291729000000000,-6.26814,53.356769,1,19,2,20,1,0,8,8
1059,Blessington Street,BLESSINGTON STREET,1552292027000000000,-6.26814,53.356769,5,15,2,20,1,0,8,13
1060,Blessington Street,BLESSINGTON STREET,1552292303000000000,-6.26814,53.356769,10,10,2,20,1,0,8,18
1061,Blessington Street,BLESSINGTON STREET,1552292660000000000,-6.26814,53.356769,8,12,2,20,1,0,8,24
1062,Blessington Street,BLESSINGTON STREET,1552292939000000000,-6.26814,53.356769,8,12,2,20,1,0,8,28
1063,Blessington Street,BLESSINGTON STREET,1552293230000000000,-6.26814,53.356769,5,15,2,20,1,0,8,33
1064,Blessington Street,BLESSINGTON STREET,1552293521000000000,-6.26814,53.356769,2,18,2,20,1,0,8,38
1065,Blessington Street,BLESSINGTON STREET,1552293607000000000,-6.26814,53.356769,0,20,2,20,1,0,8,40
1066,Blessington Street,BLESSINGTON STREET,1552294441000000000,-6.26814,53.356769,2,18,2,20,1,0,8,54
1067,Blessington Street,BLESSINGTON STREET,1552294653000000000,-6.26814,53.356769,0,20,2,20,1,0,8,57
1068,Blessington Street,BLESSINGTON STREET,1552295221000000000,-6.26814,53.356769,6,14,2,20,1,0,9,7
1069,Blessington Street,BLESSINGTON STREET,1552295638000000000,-6.26814,53.356769,3,17,2,20,1,0,9,13
1070,Blessington Street,BLESSINGTON STREET,1552295768000000000,-6.26814,53.356769,0,20,2,20,1,0,9,16
1071,Blessington Street,BLESSINGTON STREET,1552296376000000000,-6.26814,53.356769,0,20,2,20,1,0,9,26
1072,Blessington Street,BLESSINGTON STREET,1552296985000000000,-6.26814,53.356769,0,20,2,20,1,0,9,36
1073,Blessington Street,BLESSINGTON STREET,1552297593000000000,-6.26814,53.356769,0,20,2,20,1,0,9,46
1074,Blessington Street,BLESSINGTON STREET,1552298201000000000,-6.26814,53.356769,0,20,2,20,1,0,9,56
1075,Blessington Street,BLESSINGTON STREET,1552298437000000000,-6.26814,53.356769,1,19,2,20,1,0,10,0
1076,Blessington Street,BLESSINGTON STREET,1552299101000000000,-6.26814,53.356769,0,20,2,20,1,0,10,11
1077,Blessington Street,BLESSINGTON STREET,1552299710000000000,-6.26814,53.356769,0,20,2,20,1,0,10,21
1078,Blessington Street,BLESSINGTON STREET,1552300132000000000,-6.26814,53.356769,1,19,2,20,1,0,10,28
1079,Blessington Street,BLESSINGTON STREET,1552300732000000000,-6.26814,53.356769,1,19,2,20,1,0,10,38
1080,Blessington Street,BLESSINGTON STREET,1552300763000000000,-6.26814,53.356769,0,20,2,20,1,0,10,39
1081,Blessington Street,BLESSINGTON STREET,1552301371000000000,-6.26814,53.356769,0,20,2,20,1,0,10,49
1082,Blessington Street,BLESSINGTON STREET,1552301979000000000,-6.26814,53.356769,0,20,2,20,1,0,10,59
1083,Blessington Street,BLESSINGTON STREET,1552302589000000000,-6.26814,53.356769,0,20,2,20,1,0,11,9
1084,Blessington Street,BLESSINGTON STREET,1552303198000000000,-6.26814,53.356769,0,20,2,20,1,0,11,19
1085,Blessington Street,BLESSINGTON STREET,1552303807000000000,-6.26814,53.356769,0,20,2,20,1,0,11,30
1086,Blessington Street,BLESSINGTON STREET,1552304416000000000,-6.26814,53.356769,0,20,2,20,1,0,11,40
1087,Blessington Street,BLESSINGTON STREET,1552305025000000000,-6.26814,53.356769,0,20,2,20,1,0,11,50
1088,Blessington Street,BLESSINGTON STREET,1552305633000000000,-6.26814,53.356769,0,20,2,20,1,0,12,0
1089,Blessington Street,BLESSINGTON STREET,1552306242000000000,-6.26814,53.356769,0,20,2,20,1,0,12,10
1090,Blessington Street,BLESSINGTON STREET,1552306852000000000,-6.26814,53.356769,0,20,2,20,1,0,12,20
1091,Blessington Street,BLESSINGTON STREET,1552307460000000000,-6.26814,53.356769,0,20,2,20,1,0,12,31
1092,Blessington Street,BLESSINGTON STREET,1552308069000000000,-6.26814,53.356769,0,20,2,20,1,0,12,41
1093,Blessington Street,BLESSINGTON STREET,1552308437000000000,-6.26814,53.356769,1,19,2,20,1,0,12,47
1094,Blessington Street,BLESSINGTON STREET,1552308661000000000,-6.26814,53.356769,0,20,2,20,1,0,12,51
1095,Blessington Street,BLESSINGTON STREET,1552309270000000000,-6.26814,53.356769,0,20,2,20,1,0,13,1
1096,Blessington Street,BLESSINGTON STREET,1552309878000000000,-6.26814,53.356769,0,20,2,20,1,0,13,11
1097,Blessington Street,BLESSINGTON STREET,1552310486000000000,-6.26814,53.356769,0,20,2,20,1,0,13,21
1098,Blessington Street,BLESSINGTON STREET,1552311095000000000,-6.26814,53.356769,0,20,2,20,1,0,13,31
1099,Blessington Street,BLESSINGTON STREET,1552311790000000000,-6.26814,53.356769,1,19,2,20,1,0,13,43
1100,Blessington Street,BLESSINGTON STREET,1552311955000000000,-6.26814,53.356769,1,19,2,20,1,0,13,45
1101,Blessington Street,BLESSINGTON STREET,1552312728000000000,-6.26814,53.356769,1,19,2,20,1,0,13,58
1102,Blessington Street,BLESSINGTON STREET,1552312981000000000,-6.26814,53.356769,1,19,2,20,1,0,14,3
1103,Blessington Street,BLESSINGTON STREET,1552313214000000000,-6.26814,53.356769,2,18,2,20,1,0,14,6
1104,Blessington Street,BLESSINGTON STREET,1552313830000000000,-6.26814,53.356769,3,17,2,20,1,0,14,17
1105,Blessington Street,BLESSINGTON STREET,1552314127000000000,-6.26814,53.356769,4,16,2,20,1,0,14,22
1106,Blessington Street,BLESSINGTON STREET,1552314737000000000,-6.26814,53.356769,4,16,2,20,1,0,14,32
1107,Blessington Street,BLESSINGTON STREET,1552314999000000000,-6.26814,53.356769,4,16,2,20,1,0,14,36
1108,Blessington Street,BLESSINGTON STREET,1552315606000000000,-6.26814,53.356769,3,17,2,20,1,0,14,46
1109,Blessington Street,BLESSINGTON STREET,1552316329000000000,-6.26814,53.356769,2,18,2,20,1,0,14,58
1110,Blessington Street,BLESSINGTON STREET,1552316434000000000,-6.26814,53.356769,3,17,2,20,1,0,15,0
1111,Blessington Street,BLESSINGTON STREET,1552316880000000000,-6.26814,53.356769,3,17,2,20,1,0,15,8
1112,Blessington Street,BLESSINGTON STREET,1552317038000000000,-6.26814,53.356769,0,20,2,20,1,0,15,10
1113,Blessington Street,BLESSINGTON STREET,1552317647000000000,-6.26814,53.356769,0,20,2,20,1,0,15,20
1114,Blessington Street,BLESSINGTON STREET,1552318408000000000,-6.26814,53.356769,1,19,2,20,1,0,15,33
1115,Blessington Street,BLESSINGTON STREET,1552318636000000000,-6.26814,53.356769,0,20,2,20,1,0,15,37
1116,Blessington Street,BLESSINGTON STREET,1552319245000000000,-6.26814,53.356769,0,20,2,20,1,0,15,47
1117,Blessington Street,BLESSINGTON STREET,1552319358000000000,-6.26814,53.356769,1,19,2,20,1,0,15,49
1118,Blessington Street,BLESSINGTON STREET,1552319752000000000,-6.26814,53.356769,2,18,2,20,1,0,15,55
1119,Blessington Street,BLESSINGTON STREET,1552320240000000000,-6.26814,53.356769,2,18,2,20,1,0,16,4
1120,Blessington Street,BLESSINGTON STREET,1552320243000000000,-6.26814,53.356769,3,17,2,20,1,0,16,4
1121,Blessington Street,BLESSINGTON STREET,1552321132000000000,-6.26814,53.356769,3,17,2,20,1,0,16,18
1122,Blessington Street,BLESSINGTON STREET,1552321741000000000,-6.26814,53.356769,2,18,2,20,1,0,16,29
1123,Blessington Street,BLESSINGTON STREET,1552322129000000000,-6.26814,53.356769,2,18,2,20,1,0,16,35
1124,Blessington Street,BLESSINGTON STREET,1552322737000000000,-6.26814,53.356769,1,19,2,20,1,0,16,45
1125,Blessington Street,BLESSINGTON STREET,1552323104000000000,-6.26814,53.356769,2,18,2,20,1,0,16,51
1126,Blessington Street,BLESSINGTON STREET,1552323713000000000,-6.26814,53.356769,2,18,2,20,1,0,17,1
1127,Blessington Street,BLESSINGTON STREET,1552324321000000000,-6.26814,53.356769,2,18,2,20,1,0,17,12
1128,Blessington Street,BLESSINGTON STREET,1552324650000000000,-6.26814,53.356769,3,17,2,20,1,0,17,17
1129,Blessington Street,BLESSINGTON STREET,1552324958000000000,-6.26814,53.356769,4,16,2,20,1,0,17,22
1130,Blessington Street,BLESSINGTON STREET,1552325134000000000,-6.26814,53.356769,5,15,2,20,1,0,17,25
1131,Blessington Street,BLESSINGTON STREET,1552325743000000000,-6.26814,53.356769,5,15,2,20,1,0,17,35
1132,Blessington Street,BLESSINGTON STREET,1552326004000000000,-6.26814,53.356769,6,14,2,20,1,0,17,40
1133,Blessington Street,BLESSINGTON STREET,1552326535000000000,-6.26814,53.356769,4,16,2,20,1,0,17,48
1134,Blessington Street,BLESSINGTON STREET,1552327143000000000,-6.26814,53.356769,4,16,2,20,1,0,17,59
1135,Blessington Street,BLESSINGTON STREET,1552327654000000000,-6.26814,53.356769,5,15,2,20,1,0,18,7
1136,Blessington Street,BLESSINGTON STREET,1552328142000000000,-6.26814,53.356769,6,14,2,20,1,0,18,15
1137,Blessington Street,BLESSINGTON STREET,1552328759000000000,-6.26814,53.356769,5,15,2,20,1,0,18,25
1138,Blessington Street,BLESSINGTON STREET,1552329217000000000,-6.26814,53.356769,3,17,2,20,1,0,18,33
1139,Blessington Street,BLESSINGTON STREET,1552329826000000000,-6.26814,53.356769,2,18,2,20,1,0,18,43
1140,Blessington Street,BLESSINGTON STREET,1552329867000000000,-6.26814,53.356769,2,18,2,20,1,0,18,44
1141,Blessington Street,BLESSINGTON STREET,1552330316000000000,-6.26814,53.356769,0,20,2,20,1,0,18,51
1142,Blessington Street,BLESSINGTON STREET,1552330924000000000,-6.26814,53.356769,0,20,2,20,1,0,19,2
1143,Blessington Street,BLESSINGTON STREET,1552331587000000000,-6.26814,53.356769,1,19,2,20,1,0,19,13
1144,Blessington Street,BLESSINGTON STREET,1552332196000000000,-6.26814,53.356769,1,19,2,20,1,0,19,23
1145,Blessington Street,BLESSINGTON STREET,1552332804000000000,-6.26814,53.356769,1,19,2,20,1,0,19,33
1146,Blessington Street,BLESSINGTON STREET,1552333286000000000,-6.26814,53.356769,2,18,2,20,1,0,19,41
1147,Blessington Street,BLESSINGTON STREET,1552333723000000000,-6.26814,53.356769,2,18,2,20,1,0,19,48
1148,Blessington Street,BLESSINGTON STREET,1552333751000000000,-6.26814,53.356769,2,18,2,20,1,0,19,49
1149,Blessington Street,BLESSINGTON STREET,1552334359000000000,-6.26814,53.356769,2,18,2,20,1,0,19,59
1150,Blessington Street,BLESSINGTON STREET,1552334858000000000,-6.26814,53.356769,3,17,2,20,1,0,20,7
1151,Blessington Street,BLESSINGTON STREET,1552334982000000000,-6.26814,53.356769,3,17,2,20,1,0,20,9
1152,Blessington Street,BLESSINGTON STREET,1552335408000000000,-6.26814,53.356769,4,16,2,20,1,0,20,16
1153,Blessington Street,BLESSINGTON STREET,1552336098000000000,-6.26814,53.356769,3,17,2,20,1,0,20,28
1154,Blessington Street,BLESSINGTON STREET,1552336268000000000,-6.26814,53.356769,3,17,2,20,1,0,20,31
1155,Blessington Street,BLESSINGTON STREET,1552336870000000000,-6.26814,53.356769,3,17,2,20,1,0,20,41
1156,Blessington Street,BLESSINGTON STREET,1552337445000000000,-6.26814,53.356769,3,17,2,20,1,0,20,50
1157,Blessington Street,BLESSINGTON STREET,1552337957000000000,-6.26814,53.356769,3,17,2,20,1,0,20,59
1158,Blessington Street,BLESSINGTON STREET,1552338566000000000,-6.26814,53.356769,3,17,2,20,1,0,21,9
1159,Blessington Street,BLESSINGTON STREET,1552339436000000000,-6.26814,53.356769,6,14,2,20,1,0,21,23
1160,Blessington Street,BLESSINGTON STREET,1552339521000000000,-6.26814,53.356769,6,14,2,20,1,0,21,25
1161,Blessington Street,BLESSINGTON STREET,1552340140000000000,-6.26814,53.356769,6,14,2,20,1,0,21,35
1162,Blessington Street,BLESSINGTON STREET,1552340852000000000,-6.26814,53.356769,7,13,2,20,1,0,21,47
1163,Blessington Street,BLESSINGTON STREET,1552341461000000000,-6.26814,53.356769,7,13,2,20,1,0,21,57
1164,Blessington Street,BLESSINGTON STREET,1552342070000000000,-6.26814,53.356769,7,13,2,20,1,0,22,7
1165,Blessington Street,BLESSINGTON STREET,1552342678000000000,-6.26814,53.356769,7,13,2,20,1,0,22,17
1166,Blessington Street,BLESSINGTON STREET,1552343130000000000,-6.26814,53.356769,8,12,2,20,1,0,22,25
1167,Blessington Street,BLESSINGTON STREET,1552343377000000000,-6.26814,53.356769,9,11,2,20,1,0,22,29
1168,Blessington Street,BLESSINGTON STREET,1552343985000000000,-6.26814,53.356769,9,11,2,20,1,0,22,39
1169,Blessington Street,BLESSINGTON STREET,1552344594000000000,-6.26814,53.356769,9,11,2,20,1,0,22,49
1170,Blessington Street,BLESSINGTON STREET,1552345202000000000,-6.26814,53.356769,9,11,2,20,1,0,23,0
1171,Blessington Street,BLESSINGTON STREET,1552345810000000000,-6.26814,53.356769,9,11,2,20,1,0,23,10
1172,Blessington Street,BLESSINGTON STREET,1552346418000000000,-6.26814,53.356769,9,11,2,20,1,0,23,20
1173,Blessington Street,BLESSINGTON STREET,1552347027000000000,-6.26814,53.356769,9,11,2,20,1,0,23,30
1174,Blessington Street,BLESSINGTON STREET,1552347651000000000,-6.26814,53.356769,10,10,2,20,1,0,23,40
1175,Blessington Street,BLESSINGTON STREET,1552348259000000000,-6.26814,53.356769,10,10,2,20,1,0,23,50
1176,Blessington Street,BLESSINGTON STREET,1552348867000000000,-6.26814,53.356769,10,10,2,20,1,1,0,1
1177,Blessington Street,BLESSINGTON STREET,1552349475000000000,-6.26814,53.356769,10,10,2,20,1,1,0,11
1178,Blessington Street,BLESSINGTON STREET,1552350083000000000,-6.26814,53.356769,10,10,2,20,1,1,0,21
1179,Blessington Street,BLESSINGTON STREET,1552350753000000000,-6.26814,53.356769,10,10,2,20,1,1,0,32
1180,Blessington Street,BLESSINGTON STREET,1552351363000000000,-6.26814,53.356769,10,10,2,20,1,1,0,42
1181,Blessington Street,BLESSINGTON STREET,1552352059000000000,-6.26814,53.356769,10,10,2,20,1,1,0,54
1182,Blessington Street,BLESSINGTON STREET,1552352667000000000,-6.26814,53.356769,10,10,2,20,1,1,1,4
1183,Blessington Street,BLESSINGTON STREET,1552353275000000000,-6.26814,53.356769,10,10,2,20,1,1,1,14
1184,Blessington Street,BLESSINGTON STREET,1552353884000000000,-6.26814,53.356769,10,10,2,20,1,1,1,24
1185,Blessington Street,BLESSINGTON STREET,1552354493000000000,-6.26814,53.356769,10,10,2,20,1,1,1,34
1186,Blessington Street,BLESSINGTON STREET,1552355101000000000,-6.26814,53.356769,10,10,2,20,1,1,1,45
1187,Blessington Street,BLESSINGTON STREET,1552355709000000000,-6.26814,53.356769,10,10,2,20,1,1,1,55
1188,Blessington Street,BLESSINGTON STREET,1552356318000000000,-6.26814,53.356769,10,10,2,20,1,1,2,5
1189,Blessington Street,BLESSINGTON STREET,1552356927000000000,-6.26814,53.356769,10,10,2,20,1,1,2,15
1190,Blessington Street,BLESSINGTON STREET,1552357535000000000,-6.26814,53.356769,10,10,2,20,1,1,2,25
1191,Blessington Street,BLESSINGTON STREET,1552357937000000000,-6.26814,53.356769,10,10,2,20,1,1,2,32
1192,Blessington Street,BLESSINGTON STREET,1552358269000000000,-6.26814,53.356769,10,10,2,20,1,1,2,37
1193,Blessington Street,BLESSINGTON STREET,1552358878000000000,-6.26814,53.356769,10,10,2,20,1,1,2,47
1194,Blessington Street,BLESSINGTON STREET,1552359486000000000,-6.26814,53.356769,10,10,2,20,1,1,2,58
1195,Blessington Street,BLESSINGTON STREET,1552360094000000000,-6.26814,53.356769,10,10,2,20,1,1,3,8
1196,Blessington Street,BLESSINGTON STREET,1552360702000000000,-6.26814,53.356769,10,10,2,20,1,1,3,18
1197,Blessington Street,BLESSINGTON STREET,1552361310000000000,-6.26814,53.356769,10,10,2,20,1,1,3,28
1198,Blessington Street,BLESSINGTON STREET,1552361919000000000,-6.26814,53.356769,10,10,2,20,1,1,3,38
1199,Blessington Street,BLESSINGTON STREET,1552362527000000000,-6.26814,53.356769,10,10,2,20,1,1,3,48
1200,Blessington Street,BLESSINGTON STREET,1552363135000000000,-6.26814,53.356769,10,10,2,20,1,1,3,58
1201,Blessington Street,BLESSINGTON STREET,1552363743000000000,-6.26814,53.356769,10,10,2,20,1,1,4,9
1202,Blessington Street,BLESSINGTON STREET,1552364352000000000,-6.26814,53.356769,10,10,2,20,1,1,4,19
1203,Blessington Street,BLESSINGTON STREET,1552364960000000000,-6.26814,53.356769,10,10,2,20,1,1,4,29
1204,Blessington Street,BLESSINGTON STREET,1552365568000000000,-6.26814,53.356769,10,10,2,20,1,1,4,39
1205,Blessington Street,BLESSINGTON STREET,1552366176000000000,-6.26814,53.356769,10,10,2,20,1,1,4,49
1206,Blessington Street,BLESSINGTON STREET,1552366859000000000,-6.26814,53.356769,10,10,2,20,1,1,5,0
1207,Blessington Street,BLESSINGTON STREET,1552367467000000000,-6.26814,53.356769,10,10,2,20,1,1,5,11
1208,Blessington Street,BLESSINGTON STREET,1552368076000000000,-6.26814,53.356769,10,10,2,20,1,1,5,21
1209,Blessington Street,BLESSINGTON STREET,1552368684000000000,-6.26814,53.356769,10,10,2,20,1,1,5,31
1210,Blessington Street,BLESSINGTON STREET,1552369266000000000,-6.26814,53.356769,10,10,2,20,1,1,5,41
1211,Blessington Street,BLESSINGTON STREET,1552369875000000000,-6.26814,53.356769,9,11,2,20,1,1,5,51
1212,Blessington Street,BLESSINGTON STREET,1552370513000000000,-6.26814,53.356769,9,11,2,20,1,1,6,1
1213,Blessington Street,BLESSINGTON STREET,1552371121000000000,-6.26814,53.356769,8,12,2,20,1,1,6,12
1214,Blessington Street,BLESSINGTON STREET,1552371517000000000,-6.26814,53.356769,8,12,2,20,1,1,6,18
1215,Blessington Street,BLESSINGTON STREET,1552371804000000000,-6.26814,53.356769,6,14,2,20,1,1,6,23
1216,Blessington Street,BLESSINGTON STREET,1552372126000000000,-6.26814,53.356769,13,7,2,20,1,1,6,28
1217,Blessington Street,BLESSINGTON STREET,1552372158000000000,-6.26814,53.356769,12,8,2,20,1,1,6,29
1218,Blessington Street,BLESSINGTON STREET,1552372733000000000,-6.26814,53.356769,10,10,2,20,1,1,6,38
1219,Blessington Street,BLESSINGTON STREET,1552373341000000000,-6.26814,53.356769,8,12,2,20,1,1,6,49
1220,Blessington Street,BLESSINGTON STREET,1552373554000000000,-6.26814,53.356769,5,15,2,20,1,1,6,52
1221,Blessington Street,BLESSINGTON STREET,1552374163000000000,-6.26814,53.356769,4,16,2,20,1,1,7,2
1222,Blessington Street,BLESSINGTON STREET,1552374829000000000,-6.26814,53.356769,4,16,2,20,1,1,7,13
1223,Blessington Street,BLESSINGTON STREET,1552374967000000000,-6.26814,53.356769,3,17,2,20,1,1,7,16
1224,Blessington Street,BLESSINGTON STREET,1552375576000000000,-6.26814,53.356769,2,18,2,20,1,1,7,26
1225,Blessington Street,BLESSINGTON STREET,1552376180000000000,-6.26814,53.356769,4,16,2,20,1,1,7,36
1226,Blessington Street,BLESSINGTON STREET,1552376788000000000,-6.26814,53.356769,4,16,2,20,1,1,7,46
1227,Blessington Street,BLESSINGTON STREET,1552377143000000000,-6.26814,53.356769,3,17,2,20,1,1,7,52
1228,Blessington Street,BLESSINGTON STREET,1552377421000000000,-6.26814,53.356769,0,20,2,20,1,1,7,57
1229,Blessington Street,BLESSINGTON STREET,1552378030000000000,-6.26814,53.356769,0,20,2,20,1,1,8,7
1230,Blessington Street,BLESSINGTON STREET,1552378435000000000,-6.26814,53.356769,1,19,2,20,1,1,8,13
1231,Blessington Street,BLESSINGTON STREET,1552378616000000000,-6.26814,53.356769,0,20,2,20,1,1,8,16
1232,Blessington Street,BLESSINGTON STREET,1552379224000000000,-6.26814,53.356769,0,20,2,20,1,1,8,27
1233,Blessington Street,BLESSINGTON STREET,1552379833000000000,-6.26814,53.356769,0,20,2,20,1,1,8,37
1234,Blessington Street,BLESSINGTON STREET,1552380443000000000,-6.26814,53.356769,0,20,2,20,1,1,8,47
1235,Blessington Street,BLESSINGTON STREET,1552381052000000000,-6.26814,53.356769,0,20,2,20,1,1,8,57
1236,Blessington Street,BLESSINGTON STREET,1552381267000000000,-6.26814,53.356769,1,19,2,20,1,1,9,1
1237,Blessington Street,BLESSINGTON STREET,1552381633000000000,-6.26814,53.356769,2,18,2,20,1,1,9,7
1238,Blessington Street,BLESSINGTON STREET,1552381891000000000,-6.26814,53.356769,0,20,2,20,1,1,9,11
1239,Blessington Street,BLESSINGTON STREET,1552382500000000000,-6.26814,53.356769,0,20,2,20,1,1,9,21
1240,Blessington Street,BLESSINGTON STREET,1552383109000000000,-6.26814,53.356769,0,20,2,20,1,1,9,31
1241,Blessington Street,BLESSINGTON STREET,1552383718000000000,-6.26814,53.356769,0,20,2,20,1,1,9,41
1242,Blessington Street,BLESSINGTON STREET,1552384327000000000,-6.26814,53.356769,0,20,2,20,1,1,9,52
1243,Blessington Street,BLESSINGTON STREET,1552384936000000000,-6.26814,53.356769,0,20,2,20,1,1,10,2
1244,Blessington Street,BLESSINGTON STREET,1552385199000000000,-6.26814,53.356769,9,11,2,20,1,1,10,6
1245,Blessington Street,BLESSINGTON STREET,1552385616000000000,-6.26814,53.356769,8,12,2,20,1,1,10,13
1246,Blessington Street,BLESSINGTON STREET,1552386225000000000,-6.26814,53.356769,7,13,2,20,1,1,10,23
1247,Blessington Street,BLESSINGTON STREET,1552386788000000000,-6.26814,53.356769,7,13,2,20,1,1,10,33
1248,Blessington Street,BLESSINGTON STREET,1552387247000000000,-6.26814,53.356769,5,15,2,20,1,1,10,40
1249,Blessington Street,BLESSINGTON STREET,1552387696000000000,-6.26814,53.356769,4,16,2,20,1,1,10,48
1250,Blessington Street,BLESSINGTON STREET,1552387844000000000,-6.26814,53.356769,3,17,2,20,1,1,10,50
1251,Blessington Street,BLESSINGTON STREET,1552388235000000000,-6.26814,53.356769,0,20,2,20,1,1,10,57
1252,Blessington Street,BLESSINGTON STREET,1552388844000000000,-6.26814,53.356769,0,20,2,20,1,1,11,7
1253,Blessington Street,BLESSINGTON STREET,1552389453000000000,-6.26814,53.356769,0,20,2,20,1,1,11,17
1254,Blessington Street,BLESSINGTON STREET,1552390062000000000,-6.26814,53.356769,0,20,2,20,1,1,11,27
1255,Blessington Street,BLESSINGTON STREET,1552390671000000000,-6.26814,53.356769,0,20,2,20,1,1,11,37
1256,Blessington Street,BLESSINGTON STREET,1552390911000000000,-6.26814,53.356769,1,19,2,20,1,1,11,41
1257,Blessington Street,BLESSINGTON STREET,1552391154000000000,-6.26814,53.356769,2,18,2,20,1,1,11,45
1258,Blessington Street,BLESSINGTON STREET,1552391941000000000,-6.26814,53.356769,1,19,2,20,1,1,11,59
1259,Blessington Street,BLESSINGTON STREET,1552391957000000000,-6.26814,53.356769,0,20,2,20,1,1,11,59
1260,Blessington Street,BLESSINGTON STREET,1552392566000000000,-6.26814,53.356769,0,20,2,20,1,1,12,9
1261,Blessington Street,BLESSINGTON STREET,1552393025000000000,-6.26814,53.356769,1,19,2,20,1,1,12,17
1262,Blessington Street,BLESSINGTON STREET,1552393635000000000,-6.26814,53.356769,1,19,2,20,1,1,12,27
1263,Blessington Street,BLESSINGTON STREET,1552394026000000000,-6.26814,53.356769,1,19,2,20,1,1,12,33
1264,Blessington Street,BLESSINGTON STREET,1552394063000000000,-6.26814,53.356769,0,20,2,20,1,1,12,34
1265,Blessington Street,BLESSINGTON STREET,1552394539000000000,-6.26814,53.356769,1,19,2,20,1,1,12,42
1266,Blessington Street,BLESSINGTON STREET,1552394971000000000,-6.26814,53.356769,0,20,2,20,1,1,12,49
1267,Blessington Street,BLESSINGTON STREET,1552395722000000000,-6.26814,53.356769,0,20,2,20,1,1,13,2
1268,Blessington Street,BLESSINGTON STREET,1552396330000000000,-6.26814,53.356769,1,19,2,20,1,1,13,12
1269,Blessington Street,BLESSINGTON STREET,1552396725000000000,-6.26814,53.356769,1,19,2,20,1,1,13,18
1270,Blessington Street,BLESSINGTON STREET,1552397034000000000,-6.26814,53.356769,4,16,2,20,1,1,13,23
1271,Blessington Street,BLESSINGTON STREET,1552397443000000000,-6.26814,53.356769,4,16,2,20,1,1,13,30
1272,Blessington Street,BLESSINGTON STREET,1552397746000000000,-6.26814,53.356769,3,17,2,20,1,1,13,35
1273,Blessington Street,BLESSINGTON STREET,1552398206000000000,-6.26814,53.356769,2,18,2,20,1,1,13,43
1274,Blessington Street,BLESSINGTON STREET,1552398814000000000,-6.26814,53.356769,1,19,2,20,1,1,13,53
1275,Blessington Street,BLESSINGTON STREET,1552399336000000000,-6.26814,53.356769,0,20,2,20,1,1,14,2
1276,Blessington Street,BLESSINGTON STREET,1552399945000000000,-6.26814,53.356769,0,20,2,20,1,1,14,12
1277,Blessington Street,BLESSINGTON STREET,1552400554000000000,-6.26814,53.356769,0,20,2,20,1,1,14,22
1278,Blessington Street,BLESSINGTON STREET,1552401163000000000,-6.26814,53.356769,0,20,2,20,1,1,14,32
1279,Blessington Street,BLESSINGTON STREET,1552401772000000000,-6.26814,53.356769,0,20,2,20,1,1,14,42
1280,Blessington Street,BLESSINGTON STREET,1552402201000000000,-6.26814,53.356769,1,19,2,20,1,1,14,50
1281,Blessington Street,BLESSINGTON STREET,1552402810000000000,-6.26814,53.356769,1,19,2,20,1,1,15,0
1282,Blessington Street,BLESSINGTON STREET,1552403166000000000,-6.26814,53.356769,2,18,2,20,1,1,15,6
1283,Blessington Street,BLESSINGTON STREET,1552403776000000000,-6.26814,53.356769,2,18,2,20,1,1,15,16
1284,Blessington Street,BLESSINGTON STREET,1552404091000000000,-6.26814,53.356769,2,18,2,20,1,1,15,21
1285,Blessington Street,BLESSINGTON STREET,1552404712000000000,-6.26814,53.356769,1,19,2,20,1,1,15,31
1286,Blessington Street,BLESSINGTON STREET,1552405321000000000,-6.26814,53.356769,1,19,2,20,1,1,15,42
1287,Blessington Street,BLESSINGTON STREET,1552405873000000000,-6.26814,53.356769,0,20,2,20,1,1,15,51
1288,Blessington Street,BLESSINGTON STREET,1552406482000000000,-6.26814,53.356769,0,20,2,20,1,1,16,1
1289,Blessington Street,BLESSINGTON STREET,1552407131000000000,-6.26814,53.356769,1,19,2,20,1,1,16,12
1290,Blessington Street,BLESSINGTON STREET,1552407730000000000,-6.26814,53.356769,0,20,2,20,1,1,16,22
1291,Blessington Street,BLESSINGTON STREET,1552408339000000000,-6.26814,53.356769,0,20,2,20,1,1,16,32
1292,Blessington Street,BLESSINGTON STREET,1552408632000000000,-6.26814,53.356769,1,19,2,20,1,1,16,37
1293,Blessington Street,BLESSINGTON STREET,1552409112000000000,-6.26814,53.356769,0,20,2,20,1,1,16,45
1294,Blessington Street,BLESSINGTON STREET,1552409391000000000,-6.26814,53.356769,1,19,2,20,1,1,16,49
1295,Blessington Street,BLESSINGTON STREET,1552410031000000000,-6.26814,53.356769,0,20,2,20,1,1,17,0
1296,Blessington Street,BLESSINGTON STREET,1552410640000000000,-6.26814,53.356769,0,20,2,20,1,1,17,10
1297,Blessington Street,BLESSINGTON STREET,1552411249000000000,-6.26814,53.356769,0,20,2,20,1,1,17,20
1298,Blessington Street,BLESSINGTON STREET,1552411839000000000,-6.26814,53.356769,1,19,2,20,1,1,17,30
1299,Blessington Street,BLESSINGTON STREET,1552412259000000000,-6.26814,53.356769,2,18,2,20,1,1,17,37
1300,Blessington Street,BLESSINGTON STREET,1552412868000000000,-6.26814,53.356769,2,18,2,20,1,1,17,47
1301,Blessington Street,BLESSINGTON STREET,1552413478000000000,-6.26814,53.356769,2,18,2,20,1,1,17,57
1302,Blessington Street,BLESSINGTON STREET,1552414141000000000,-6.26814,53.356769,2,18,2,20,1,1,18,9
1303,Blessington Street,BLESSINGTON STREET,1552414365000000000,-6.26814,53.356769,4,16,2,20,1,1,18,12
1304,Blessington Street,BLESSINGTON STREET,1552414888000000000,-6.26814,53.356769,5,15,2,20,1,1,18,21
1305,Blessington Street,BLESSINGTON STREET,1552415250000000000,-6.26814,53.356769,6,14,2,20,1,1,18,27
1306,Blessington Street,BLESSINGTON STREET,1552415858000000000,-6.26814,53.356769,6,14,2,20,1,1,18,37
1307,Blessington Street,BLESSINGTON STREET,1552416005000000000,-6.26814,53.356769,7,13,2,20,1,1,18,40
1308,Blessington Street,BLESSINGTON STREET,1552416424000000000,-6.26814,53.356769,7,13,2,20,1,1,18,47
1309,Blessington Street,BLESSINGTON STREET,1552419357000000000,-6.26814,53.356769,8,12,2,20,1,1,19,35
1310,Blessington Street,BLESSINGTON STREET,1552419616000000000,-6.26814,53.356769,9,11,2,20,1,1,19,40
1311,Blessington Street,BLESSINGTON STREET,1552420226000000000,-6.26814,53.356769,9,11,2,20,1,1,19,50
1312,Blessington Street,BLESSINGTON STREET,1552421010000000000,-6.26814,53.356769,10,10,2,20,1,1,20,3
1313,Blessington Street,BLESSINGTON STREET,1552421048000000000,-6.26814,53.356769,10,10,2,20,1,1,20,4
1314,Blessington Street,BLESSINGTON STREET,1552421657000000000,-6.26814,53.356769,9,11,2,20,1,1,20,14
1315,Blessington Street,BLESSINGTON STREET,1552422372000000000,-6.26814,53.356769,10,10,2,20,1,1,20,26
1316,Blessington Street,BLESSINGTON STREET,1552422980000000000,-6.26814,53.356769,10,10,2,20,1,1,20,36
1317,Blessington Street,BLESSINGTON STREET,1552423319000000000,-6.26814,53.356769,10,10,2,20,1,1,20,41
1318,Blessington Street,BLESSINGTON STREET,1552423729000000000,-6.26814,53.356769,10,10,2,20,1,1,20,48
1319,Blessington Street,BLESSINGTON STREET,1552423803000000000,-6.26814,53.356769,10,10,2,20,1,1,20,50
1320,Blessington Street,BLESSINGTON STREET,1552424412000000000,-6.26814,53.356769,9,11,2,20,1,1,21,0
1321,Blessington Street,BLESSINGTON STREET,1552424866000000000,-6.26814,53.356769,11,9,2,20,1,1,21,7
1322,Blessington Street,BLESSINGTON STREET,1552424978000000000,-6.26814,53.356769,12,8,2,20,1,1,21,9
1323,Blessington Street,BLESSINGTON STREET,1552425369000000000,-6.26814,53.356769,12,8,2,20,1,1,21,16
1324,Blessington Street,BLESSINGTON STREET,1552425790000000000,-6.26814,53.356769,12,8,2,20,1,1,21,23
1325,Blessington Street,BLESSINGTON STREET,1552426098000000000,-6.26814,53.356769,13,7,2,20,1,1,21,28
1326,Blessington Street,BLESSINGTON STREET,1552426462000000000,-6.26814,53.356769,14,6,2,20,1,1,21,34
1327,Blessington Street,BLESSINGTON STREET,1552427070000000000,-6.26814,53.356769,14,6,2,20,1,1,21,44
1328,Blessington Street,BLESSINGTON STREET,1552427680000000000,-6.26814,53.356769,14,6,2,20,1,1,21,54
1329,Blessington Street,BLESSINGTON STREET,1552428211000000000,-6.26814,53.356769,14,6,2,20,1,1,22,3
1330,Blessington Street,BLESSINGTON STREET,1552428842000000000,-6.26814,53.356769,14,6,2,20,1,1,22,14
1331,Blessington Street,BLESSINGTON STREET,1552429482000000000,-6.26814,53.356769,15,5,2,20,1,1,22,24
1332,Blessington Street,BLESSINGTON STREET,1552430091000000000,-6.26814,53.356769,15,5,2,20,1,1,22,34
1333,Blessington Street,BLESSINGTON STREET,1552430700000000000,-6.26814,53.356769,15,5,2,20,1,1,22,45
1334,Blessington Street,BLESSINGTON STREET,1552431308000000000,-6.26814,53.356769,15,5,2,20,1,1,22,55
1335,Blessington Street,BLESSINGTON STREET,1552431921000000000,-6.26814,53.356769,15,5,2,20,1,1,23,5
1336,Blessington Street,BLESSINGTON STREET,1552432525000000000,-6.26814,53.356769,15,5,2,20,1,1,23,15
1337,Blessington Street,BLESSINGTON STREET,1552433134000000000,-6.26814,53.356769,15,5,2,20,1,1,23,25
1338,Blessington Street,BLESSINGTON STREET,1552433742000000000,-6.26814,53.356769,15,5,2,20,1,1,23,35
1339,Blessington Street,BLESSINGTON STREET,1552434184000000000,-6.26814,53.356769,17,3,2,20,1,1,23,43
1340,Blessington Street,BLESSINGTON STREET,1552434793000000000,-6.26814,53.356769,17,3,2,20,1,1,23,53
